{"type": "FeatureCollection", "features": [{"type": "Feature", "geometry": {"type": "MultiPolygon", "coordinates": [[[[-73.98543308307643, 40.727514656224585], [-73.98543692194059, 40.727514163231355], [-73.98544079854302, 40.72751431230556], [-73.98544454124867, 40.72751509351988], [-73.98544797606104, 40.72751646993149], [-73.98545093964265, 40.72751837848417], [-73.98545329351997, 40.72752072730856], [-73.9854549252648, 40.72752340742892], [-73.98545575796415, 40.72752629096332], [-73.98545575495233, 40.72752924373134], [-73.98543515093036, 40.727558346472286], [-73.98543320550066, 40.727561093678545], [-73.98543286567168, 40.7275615754078], [-73.98541659059943, 40.72758456423806], [-73.985415361532, 40.72758630026336], [-73.9854116624889, 40.72759152454687], [-73.98540856908342, 40.72759325943538], [-73.98540508043111, 40.72759448548622], [-73.98540133858792, 40.727595152288934], [-73.98539749744222, 40.72759523104663], [-73.98539371324344, 40.72759472087867], [-73.98539014105322, 40.727593640715426], [-73.98538692764136, 40.727592035600985], [-73.985384204385, 40.72758997128913], [-73.98538208135018, 40.7275875324418], [-73.9853806484769, 40.72758481812633], [-73.98537996137475, 40.72758194001295], [-73.98538584612031, 40.72757407841757], [-73.98538677086597, 40.727572843036846], [-73.98540412197637, 40.727549662538785], [-73.98540414447352, 40.72754963192435], [-73.98542949739125, 40.72751576159577], [-73.98543308307643, 40.727514656224585]]]]}, "properties": {"street_nam": null, "shape_area": "278.601804663", "shape_leng": "75.9965422687", "feat_code": "3600", "status": "New", "sub_code": "360080", "source_id": "0.0"}}, {"type": "Feature", "geometry": {"type": "MultiPolygon", "coordinates": [[[[-73.98713807760215, 40.725168041104105], [-73.98715959040504, 40.72513879947206], [-73.98720865880027, 40.72507284174096], [-73.98724946661851, 40.72506723969744], [-73.98726058990151, 40.725052698606994], [-73.98741814522711, 40.72483690981939], [-73.98738871672995, 40.7248265003162], [-73.9874792152494, 40.724702570417044], [-73.98747850453898, 40.72470532319629], [-73.9874785560926, 40.724708129188414], [-73.98747936874976, 40.72471086592411], [-73.98748090702264, 40.72471341723381], [-73.98748310464771, 40.72471567144718], [-73.9874858657669, 40.7247175321992], [-73.98748907321347, 40.72471891843133], [-73.98749258732724, 40.72471977069478], [-73.98749625779062, 40.724720052952804], [-73.98749992481235, 40.72471975258093], [-73.98750342978005, 40.72471888216903], [-73.98750662354604, 40.72471747952235], [-73.98750936761121, 40.72471560495997], [-73.98752643936227, 40.724690918451635], [-73.98754318824709, 40.72469637374835], [-73.9874013120703, 40.72488890067484], [-73.98720472322712, 40.725158614796136], [-73.98718282330053, 40.725188267025594], [-73.98713807760215, 40.725168041104105]]]]}, "properties": {"street_nam": "NO NAME", "shape_area": "1893.7170443", "shape_leng": "456.122751562", "feat_code": "3600", "status": "Updated", "sub_code": "360010", "source_id": "12360001267.0"}}, {"type": "Feature", "geometry": {"type": "MultiPolygon", "coordinates": [[[[-73.98706650277666, 40.72526494317384], [-73.9870936721778, 40.72522450435917], [-73.98713975794429, 40.725244031652416], [-73.98711580010637, 40.725277012820996], [-73.98696393871312, 40.72548606241715], [-73.98691529902337, 40.725554161499616], [-73.9868926930132, 40.72554350050325], [-73.98694135331182, 40.7254790376882], [-73.98705271154297, 40.72533375402562], [-73.98704809335896, 40.725325177958226], [-73.98704349708194, 40.725313516749026], [-73.98704119223616, 40.725302615827175], [-73.98706650277666, 40.72526494317384]]]]}, "properties": {"street_nam": "NO NAME", "shape_area": "1093.11527535", "shape_leng": "283.131382649", "feat_code": "3600", "status": "Updated", "sub_code": "360010", "source_id": "12360000871.0"}}, {"type": "Feature", "geometry": {"type": "MultiPolygon", "coordinates": [[[[-73.98584043175684, 40.726951239739336], [-73.9859173735, 40.72684309805751], [-73.98595882745678, 40.726860760298514], [-73.98587483516292, 40.72697687514919], [-73.98586796416171, 40.7269863746748], [-73.98584970850573, 40.726978507388225], [-73.9858453259053, 40.72697556398653], [-73.9858440028577, 40.726974037461304], [-73.98584279117398, 40.72697205709327], [-73.9858409430799, 40.72696810993562], [-73.98583941966615, 40.72696252749373], [-73.98583929681537, 40.72696133430437], [-73.98583888337483, 40.726957320685415], [-73.98584043175684, 40.726951239739336]]]]}, "properties": {"street_nam": "NO NAME", "shape_area": "662.353082621", "shape_leng": "126.867766329", "feat_code": "3600", "status": "Updated", "sub_code": "360010", "source_id": "12360000873.0"}}, {"type": "Feature", "geometry": {"type": "MultiPolygon", "coordinates": [[[[-73.98812746842133, 40.72784172688625], [-73.98835928333527, 40.727527302791], [-73.98843872436758, 40.72741707230642], [-73.98844491662727, 40.72740848027284], [-73.98846637550334, 40.727418115167175], [-73.98846924053801, 40.7274222289784], [-73.98847002266106, 40.727423992253], [-73.98847023750187, 40.72742742141214], [-73.9884694179047, 40.727430161578376], [-73.98846931723195, 40.72743049655756], [-73.98846744629714, 40.727434441499355], [-73.98839317901032, 40.727539366727186], [-73.98839107539105, 40.72754036607989], [-73.98838949751128, 40.72754036592082], [-73.98836895584724, 40.72753148483084], [-73.98813702858477, 40.72784549920232], [-73.98814403774203, 40.72787649993862], [-73.98814403728815, 40.72787905107988], [-73.98811594078937, 40.72791840131705], [-73.98811194712923, 40.72792399486522], [-73.98810873403912, 40.72792676359788], [-73.98810616535363, 40.72792692632466], [-73.98807833256546, 40.72791454415242], [-73.98807726278089, 40.727912915021285], [-73.9880772631305, 40.727910960917306], [-73.98808128400947, 40.727905416000624], [-73.98812746842133, 40.72784172688625]]]]}, "properties": {"street_nam": null, "shape_area": "1176.97440699", "shape_leng": "448.443514263", "feat_code": "3600", "status": "New", "sub_code": "360010", "source_id": "0.0"}}, {"type": "Feature", "geometry": {"type": "MultiPolygon", "coordinates": [[[[-73.98767365352204, 40.728463378722914], [-73.98795982138974, 40.72807318345341], [-73.9880046148397, 40.72801132858065], [-73.98801673197954, 40.72799459478765], [-73.98801897768952, 40.72799345587779], [-73.9880217226877, 40.727993646170695], [-73.98805091681074, 40.728005798868075], [-73.98805116623402, 40.72800769716638], [-73.98803815283661, 40.72802550067426], [-73.98800648778153, 40.72806882175671], [-73.98796980287206, 40.7280775510636], [-73.98784531023651, 40.728246887661825], [-73.98786992730405, 40.72825736227364], [-73.9878160985216, 40.728330580556246], [-73.98779146723182, 40.72832010052845], [-73.98768347893323, 40.728466986311645], [-73.98769353174582, 40.72849555242274], [-73.9876680264941, 40.72853164748531], [-73.9876636716186, 40.72853781010028], [-73.98766209935734, 40.72853930297523], [-73.98765974360916, 40.728540050145], [-73.98765758331372, 40.728540049913455], [-73.98763323730039, 40.72852929162552], [-73.98763107733791, 40.72852749938125], [-73.98763068470228, 40.72852555694183], [-73.98763524562895, 40.72851895760351], [-73.98767365352204, 40.728463378722914]]]]}, "properties": {"street_nam": "NO NAME", "shape_area": "1317.48536742", "shape_leng": "486.508074433", "feat_code": "3600", "status": "Updated", "sub_code": "360010", "source_id": "12360000135.0"}}, {"type": "Feature", "geometry": {"type": "MultiPolygon", "coordinates": [[[[-73.98681591943722, 40.72964557588916], [-73.98707072364829, 40.72929203990156], [-73.98712948578414, 40.72921106104475], [-73.98713598503721, 40.72920210441192], [-73.98713711321982, 40.72920167499534], [-73.987138807145, 40.72920167518456], [-73.987170220917, 40.72921498820612], [-73.98717022044855, 40.72921742138032], [-73.98716540250241, 40.729224306132174], [-73.98713343044957, 40.72926999256944], [-73.98712565135048, 40.72928008640126], [-73.98708236139646, 40.72929592510126], [-73.98700424335988, 40.729403550500635], [-73.98702990938176, 40.729414711596284], [-73.98697640336209, 40.729486518414355], [-73.98697514964799, 40.72948719905703], [-73.98697300113248, 40.72948733569128], [-73.98695080443656, 40.72947718624742], [-73.98682484879238, 40.72964964000575], [-73.98683574078697, 40.729677713704966], [-73.98683535792057, 40.72968033143955], [-73.98680703903915, 40.729717105867934], [-73.98680265568997, 40.72972279748013], [-73.98679844967272, 40.72972366959075], [-73.98679577331268, 40.72972323343774], [-73.9867707287429, 40.72971174007416], [-73.98676977372118, 40.72971043062501], [-73.9867697740387, 40.72970883132186], [-73.98677290826213, 40.729704538057206], [-73.98681281125816, 40.72964988716818], [-73.98681591943722, 40.72964557588916]]]]}, "properties": {"street_nam": null, "shape_area": "1361.95283939", "shape_leng": "465.519133699", "feat_code": "3600", "status": "New", "sub_code": "360010", "source_id": "0.0"}}, {"type": "Feature", "geometry": {"type": "MultiPolygon", "coordinates": [[[[-73.98627632476928, 40.730384804212164], [-73.98627906785467, 40.730383240355835], [-73.98628249475752, 40.7303835883604], [-73.98630854307481, 40.73039628052519], [-73.98631037029499, 40.7303987139163], [-73.98631014118709, 40.73040184315595], [-73.98629588389056, 40.73041975167278], [-73.98626547358772, 40.73045795031973], [-73.98623254039366, 40.730463065777464], [-73.98622280370253, 40.73045871335611], [-73.98626137677351, 40.730405446586055], [-73.98627632476928, 40.730384804212164]]]]}, "properties": {"street_nam": null, "shape_area": "315.442270339", "shape_leng": "79.7312709698", "feat_code": "3600", "status": "New", "sub_code": "360010", "source_id": "0.0"}}, {"type": "Feature", "geometry": {"type": "MultiPolygon", "coordinates": [[[[-73.98591715587763, 40.73088078790454], [-73.98622280370253, 40.73045871335611], [-73.98623254039366, 40.730463065777464], [-73.98592587233556, 40.73088452157756], [-73.98591715587763, 40.73088078790454]]]]}, "properties": {"street_nam": "NO NAME", "shape_area": "517.929975722", "shape_leng": "356.969855585", "feat_code": "3600", "status": "Updated", "sub_code": "360010", "source_id": "12360001335.0"}}, {"type": "Feature", "geometry": {"type": "MultiPolygon", "coordinates": [[[[-73.98544935692917, 40.731519684549745], [-73.98571201359795, 40.73115923764636], [-73.98579642006736, 40.73104209014833], [-73.98581146191744, 40.731021213715884], [-73.98582874439477, 40.731029272692574], [-73.98583473430172, 40.731034644061545], [-73.98583751383093, 40.73104001503542], [-73.98583836862306, 40.731045059788485], [-73.98583686994587, 40.731050755319664], [-73.98583228502181, 40.73105721680377], [-73.98574848803482, 40.73117531443961], [-73.98572301096713, 40.73116408554638], [-73.98565574525355, 40.73125365705688], [-73.9856781602794, 40.73126324215631], [-73.98567944045737, 40.731266328357634], [-73.98567965412674, 40.73126908934281], [-73.98563041512651, 40.73133497430521], [-73.98562810664254, 40.73133555934749], [-73.98562575579237, 40.731334987231286], [-73.98561207746181, 40.73132872248751], [-73.98560890624948, 40.73132818628877], [-73.98560379702698, 40.73132845400161], [-73.98560185898798, 40.73132939118849], [-73.98545999579927, 40.731523868754735], [-73.98546452162932, 40.73153356599972], [-73.98546673684984, 40.73154270553822], [-73.98546858391609, 40.731551845930746], [-73.98546784316622, 40.73155592333895], [-73.98544475060064, 40.731585882135], [-73.98543582238524, 40.731597466045535], [-73.98543415311968, 40.731598100692786], [-73.98540389620676, 40.731585238503335], [-73.98540347864636, 40.73158380934373], [-73.98541202103198, 40.73157186968601], [-73.98544935692917, 40.731519684549745]]]]}, "properties": {"street_nam": "NO NAME", "shape_area": "1646.67824928", "shape_leng": "512.565270943", "feat_code": "3600", "status": "Updated", "sub_code": "360010", "source_id": "12360001221.0"}}, {"type": "Feature", "geometry": {"type": "MultiPolygon", "coordinates": [[[[-73.98270360612351, 40.731255817920996], [-73.98292381847847, 40.73095547631275], [-73.9828751125453, 40.73104706339006], [-73.98286020835262, 40.731067619778976], [-73.98271938897365, 40.731261845592], [-73.98270360612351, 40.731255817920996]]]]}, "properties": {"street_nam": "NO NAME", "shape_area": "498.239937174", "shape_leng": "255.548024352", "feat_code": "3600", "status": "Unchanged", "sub_code": "360010", "source_id": "12360000818.0"}}, {"type": "Feature", "geometry": {"type": "MultiPolygon", "coordinates": [[[[-73.98318492973219, 40.73060054872796], [-73.9832692349415, 40.73048197124964], [-73.98324861487916, 40.730529779847444], [-73.98323326322377, 40.730565374712015], [-73.98320110639587, 40.73060763538891], [-73.98318492973219, 40.73060054872796]]]]}, "properties": {"street_nam": "NO NAME", "shape_area": "185.664056254", "shape_leng": "104.059522032", "feat_code": "3600", "status": "Unchanged", "sub_code": "360010", "source_id": "12360000819.0"}}, {"type": "Feature", "geometry": {"type": "MultiPolygon", "coordinates": [[[[-73.98258012007639, 40.73143582803489], [-73.98258356851474, 40.73143543863641], [-73.98258704639733, 40.73143562376661], [-73.98259038918208, 40.731436373494965], [-73.98259344180322, 40.731437654479286], [-73.98259605985652, 40.731439404562735], [-73.98259812143431, 40.73144154268109], [-73.98259952830965, 40.731443967962626], [-73.9826002165879, 40.73144656783417], [-73.9826001519718, 40.73144921892095], [-73.98259933804499, 40.731451796953316], [-73.98259894368674, 40.731452413741955], [-73.98259792640829, 40.73145400478643], [-73.98259781390351, 40.731454181269086], [-73.9825901699098, 40.73146460709965], [-73.9825871454695, 40.731468730970505], [-73.98258189355225, 40.731475894620495], [-73.98258034698964, 40.73147800427756], [-73.98257324061689, 40.7314876953735], [-73.98255646052134, 40.73151058015254], [-73.98255423329, 40.73151267349699], [-73.98255143914469, 40.73151432730739], [-73.9825482248966, 40.731515454256765], [-73.98254475747336, 40.73151599673774], [-73.98254121681687, 40.73151592506081], [-73.98253778996241, 40.731515244657416], [-73.98253465209977, 40.7315139906739], [-73.98253196894098, 40.73151222707163], [-73.98252987896359, 40.731510046623896], [-73.98252849222877, 40.73150756371206], [-73.98252788091322, 40.73150490621921], [-73.98252807575872, 40.73150221282836], [-73.9825290660741, 40.7314996249177], [-73.98254600976286, 40.73147587928148], [-73.98255235712979, 40.73146698412157], [-73.98255525252318, 40.7314629268697], [-73.98256271186075, 40.73145247219721], [-73.98257069106357, 40.73144128999222], [-73.98257097764244, 40.73144088750836], [-73.98257151882595, 40.73144012936222], [-73.98257395079678, 40.73143822965771], [-73.98257686326421, 40.73143677307594], [-73.98258012007639, 40.73143582803489]]]]}, "properties": {"street_nam": "NO NAME", "shape_area": "264.673204768", "shape_leng": "74.4827013118", "feat_code": "3600", "status": "Unchanged", "sub_code": "360080", "source_id": "12360000951.0"}}, {"type": "Feature", "geometry": {"type": "MultiPolygon", "coordinates": [[[[-73.98367044258143, 40.729940648545224], [-73.98367426849862, 40.72994047619005], [-73.9836780504603, 40.729940944090146], [-73.98368160735853, 40.729942029707004], [-73.98368476756312, 40.72994367898592], [-73.98368737602208, 40.72994581446119], [-73.98368930965106, 40.72994833165637], [-73.98369047259618, 40.72995110898938], [-73.98369081043745, 40.72995401317721], [-73.98368488025325, 40.72996206288329], [-73.98368137045439, 40.72996682967801], [-73.98367654507322, 40.72997337929303], [-73.98367100802044, 40.72998089775407], [-73.98367098196933, 40.72998093287022], [-73.98365547324137, 40.73000199176306], [-73.9836544631664, 40.73000336399463], [-73.98365347446696, 40.73000445887263], [-73.98365305648962, 40.73000492257516], [-73.98365254852295, 40.730005485320895], [-73.98365005985343, 40.730007229252564], [-73.98364712384068, 40.7300085075577], [-73.98364388610138, 40.73000925722144], [-73.98364051118654, 40.73000943864475], [-73.98363716837422, 40.73000904464757], [-73.98363402456857, 40.73000809416428], [-73.98363123956412, 40.73000663494465], [-73.98362895184164, 40.7300047399495], [-73.9836272773852, 40.73000250464931], [-73.98362630021303, 40.73000004252009], [-73.98362606882874, 40.72999747603794], [-73.98362659622167, 40.72999493487791], [-73.98362731025641, 40.729993983141945], [-73.98362770931048, 40.729993451898636], [-73.98362958261471, 40.72999095775638], [-73.9836453043928, 40.72997002226696], [-73.98364534938989, 40.72996996283976], [-73.98365065550249, 40.72996289730297], [-73.98366675974302, 40.729941452176966], [-73.98367044258143, 40.729940648545224]]]]}, "properties": {"street_nam": "NO NAME", "shape_area": "210.96978606", "shape_leng": "64.7968885267", "feat_code": "3600", "status": "Unchanged", "sub_code": "360080", "source_id": "12360000949.0"}}, {"type": "Feature", "geometry": {"type": "MultiPolygon", "coordinates": [[[[-73.98310531433506, 40.730723613163825], [-73.98310869164162, 40.730723484886575], [-73.98311202619183, 40.73072391221669], [-73.98311516173405, 40.73072487622048], [-73.98311795149345, 40.730726330950624], [-73.98312026408995, 40.73072820704871], [-73.98312199182288, 40.73073041895065], [-73.98312305303922, 40.73073286128502], [-73.98312339804995, 40.73073541968003], [-73.98312310754238, 40.730737337720406], [-73.98312301149609, 40.73073797526629], [-73.98312191116463, 40.73074040737826], [-73.98312062042429, 40.73074214066777], [-73.98310475142006, 40.73076344076771], [-73.98310324279221, 40.730765466690286], [-73.98309945938118, 40.730770545002535], [-73.98308459690348, 40.73079050168879], [-73.98308247986591, 40.73079234651953], [-73.98307986930354, 40.730793778844856], [-73.9830769001844, 40.73079472394237], [-73.98307372641017, 40.73079513320722], [-73.98307051371354, 40.73079498415105], [-73.98306742900301, 40.73079428580347], [-73.98306463207777, 40.73079307330784], [-73.98306226852449, 40.730791410621684], [-73.98306046261645, 40.73078938421208], [-73.98305930666056, 40.73078709855166], [-73.98305886099827, 40.73078467341695], [-73.98305914927269, 40.73078223488256], [-73.98306015724665, 40.73077990901762], [-73.98307402788298, 40.73075937316177], [-73.98307742892898, 40.73075433801856], [-73.9830784615585, 40.730752809107045], [-73.9830931670493, 40.73073103877445], [-73.98309441757218, 40.73072918751274], [-73.98309647310178, 40.7307271454614], [-73.9830971562439, 40.73072670701407], [-73.98309905885952, 40.7307254871044], [-73.98310205171421, 40.73072429076795], [-73.98310531433506, 40.730723613163825]]]]}, "properties": {"street_nam": "NO NAME", "shape_area": "220.066573503", "shape_leng": "66.4719051385", "feat_code": "3600", "status": "Unchanged", "sub_code": "360080", "source_id": "12360000976.0"}}, {"type": "Feature", "geometry": {"type": "MultiPolygon", "coordinates": [[[[-73.98307402788298, 40.73075937316177], [-73.98306015724665, 40.73077990901762], [-73.98305914927269, 40.73078223488256], [-73.98305886099827, 40.73078467341695], [-73.98305930666056, 40.73078709855166], [-73.98306046261645, 40.73078938421208], [-73.98306226852449, 40.730791410621684], [-73.98306463207777, 40.73079307330784], [-73.98306742900301, 40.73079428580347], [-73.98307051371354, 40.73079498415105], [-73.98307372641017, 40.73079513320722], [-73.9830769001844, 40.73079472394237], [-73.98307986930354, 40.730793778844856], [-73.98308247986591, 40.73079234651953], [-73.98308459690348, 40.73079050168879], [-73.98309945938118, 40.730770545002535], [-73.98311301432803, 40.730776500252325], [-73.98306774932095, 40.7308381108935], [-73.98305578916136, 40.73085438942573], [-73.98297005359183, 40.730971084467775], [-73.98302376153217, 40.730829947611774], [-73.98306850269398, 40.730756946379806], [-73.98307402788298, 40.73075937316177]]]]}, "properties": {"street_nam": "NO NAME", "shape_area": "611.28286091", "shape_leng": "198.563514845", "feat_code": "3600", "status": "Unchanged", "sub_code": "360010", "source_id": "12360000977.0"}}, {"type": "Feature", "geometry": {"type": "MultiPolygon", "coordinates": [[[[-73.98357151765316, 40.73008092559545], [-73.98357504765383, 40.730080700971904], [-73.98357854790311, 40.73008111570503], [-73.98358182072008, 40.73008214815449], [-73.98358468027081, 40.730083737959674], [-73.9835869667708, 40.73008579594752], [-73.9835885500359, 40.730088206834466], [-73.9835893401347, 40.730090833730344], [-73.98358929330469, 40.730093528945616], [-73.983587270774, 40.73009630492508], [-73.98358578466315, 40.73009834706653], [-73.98358190893447, 40.73010366761871], [-73.98357931919428, 40.730107222457], [-73.98357731442482, 40.73010997502556], [-73.98356973940236, 40.73012037571862], [-73.98356913785273, 40.73012120229957], [-73.98356639535523, 40.73012496783477], [-73.98354993444349, 40.73014756824762], [-73.9835465071757, 40.73014880505662], [-73.98354281015712, 40.73014945559598], [-73.98353901740732, 40.73014948747211], [-73.98353530293781, 40.73014890161058], [-73.98353183957003, 40.7301477241507], [-73.98352878709721, 40.730146009145926], [-73.98352628991738, 40.73014383676222], [-73.98352446164566, 40.7301413078728], [-73.98352338748313, 40.73013854045649], [-73.98354158060089, 40.73011443914733], [-73.98354396664068, 40.73011127870353], [-73.98354497789529, 40.7301099388914], [-73.98355751200152, 40.73009333440459], [-73.98356146583872, 40.730088096711135], [-73.98356260853205, 40.73008658221898], [-73.98356515561264, 40.73008320837719], [-73.9835681567741, 40.73008177789745], [-73.98357151765316, 40.73008092559545]]]]}, "properties": {"street_nam": "NO NAME", "shape_area": "205.686523201", "shape_leng": "65.0359018492", "feat_code": "3600", "status": "Unchanged", "sub_code": "360080", "source_id": "12360000978.0"}}, {"type": "Feature", "geometry": {"type": "MultiPolygon", "coordinates": [[[[-73.98354158060089, 40.73011443914733], [-73.98352338748313, 40.73013854045649], [-73.98352446164566, 40.7301413078728], [-73.98352628991738, 40.73014383676222], [-73.98352878709721, 40.730146009145926], [-73.98353183957003, 40.7301477241507], [-73.98353530293781, 40.73014890161058], [-73.98353901740732, 40.73014948747211], [-73.98354281015712, 40.73014945559598], [-73.9835465071757, 40.73014880505662], [-73.98354993444349, 40.73014756824762], [-73.98356639535523, 40.73012496783477], [-73.98358360175558, 40.73013226800996], [-73.98355095586173, 40.730176988906514], [-73.98354473195225, 40.73018551583266], [-73.98331658478895, 40.73049805309598], [-73.98337018584907, 40.73034907532661], [-73.98337193395055, 40.730345556391995], [-73.98337451415537, 40.73034234465081], [-73.98337783410226, 40.73033955355387], [-73.98338177894237, 40.73033728123985], [-73.98338621015682, 40.730335606033], [-73.98340600774262, 40.7303337610443], [-73.98341219574287, 40.73033170967707], [-73.98342605974648, 40.730317992426784], [-73.9835123216707, 40.730201136819865], [-73.98351442287364, 40.7301961852245], [-73.9835153462939, 40.73019102454256], [-73.98351506229753, 40.73018581776184], [-73.98350755231654, 40.73016770926171], [-73.98350646415427, 40.73016411337543], [-73.98350614071754, 40.73016043114987], [-73.98350659026899, 40.73015675713962], [-73.98350780094816, 40.73015318409535], [-73.98350974195473, 40.73014980296393], [-73.9835123647337, 40.730146699286685], [-73.98353782376745, 40.73011284471025], [-73.98354158060089, 40.73011443914733]]]]}, "properties": {"street_nam": "NO NAME", "shape_area": "1079.78087576", "shape_leng": "348.637181657", "feat_code": "3600", "status": "Unchanged", "sub_code": "360010", "source_id": "12360000979.0"}}, {"type": "Feature", "geometry": {"type": "MultiPolygon", "coordinates": [[[[-73.98101165283518, 40.73077418909217], [-73.98101470366443, 40.73077323685725], [-73.98157646020228, 40.73100688666744], [-73.98157670874362, 40.73100706680887], [-73.98157695727998, 40.73100726496048], [-73.98157719397864, 40.731007463110195], [-73.98157741883966, 40.731007661258026], [-73.98157763185804, 40.73100787741412], [-73.98157784487641, 40.73100809357021], [-73.98157804605712, 40.73100830972437], [-73.98157823539768, 40.73100853488177], [-73.98157841289806, 40.73100876904235], [-73.98157857856076, 40.731009003201045], [-73.98157873238331, 40.731009246362895], [-73.98157887436818, 40.73100948952289], [-73.98157900451538, 40.73100973268099], [-73.9815791346601, 40.73100998484415], [-73.98157924112945, 40.73101023700355], [-73.98157934759634, 40.731010498168], [-73.98157943039035, 40.73101075032361], [-73.9815795013442, 40.73101101148239], [-73.98157957229557, 40.731011281646246], [-73.98157961957408, 40.731011542801255], [-73.98157965501242, 40.73101181295945], [-73.98157969045326, 40.73101207411255], [-73.98157970221627, 40.73101234426695], [-73.98157970214406, 40.73101260541437], [-73.98157969023171, 40.731012875564964], [-73.98157966648168, 40.73101314571366], [-73.98157963089646, 40.73101340685541], [-73.98157959530877, 40.73101367700227], [-73.9815795360482, 40.731013938140215], [-73.98157946494997, 40.73101419927627], [-73.98157938201406, 40.73101446041042], [-73.98157928724046, 40.7310147215427], [-73.98157918063168, 40.731014973668], [-73.98157906218523, 40.7310152257914], [-73.98157893190111, 40.73101547791291], [-73.98157878978179, 40.73101572102745], [-73.9815786358248, 40.731015964140084], [-73.9815784818703, 40.73101619824764], [-73.98157830424046, 40.73101643235142], [-73.98157812661309, 40.7310166574501], [-73.98157792531038, 40.731016882545006], [-73.98157772401014, 40.731017098634766], [-73.98157751087224, 40.73101731472268], [-73.98157728589915, 40.73101752180361], [-73.98157704909086, 40.73101771987758], [-73.98157681228513, 40.73101790894645], [-73.98157656364165, 40.731018098013436], [-73.98157630316301, 40.731018278073435], [-73.98157603084667, 40.73101845813156], [-73.98157575853531, 40.7310186201795], [-73.98157547438628, 40.73101878222555], [-73.98157519023975, 40.73101893526651], [-73.98157489425802, 40.73101907930049], [-73.9815745864411, 40.73101921432749], [-73.98157427862667, 40.73101934034942], [-73.98157395897707, 40.73101945736436], [-73.98157363932744, 40.73101957437929], [-73.98157331968281, 40.73101967338408], [-73.98157298820048, 40.73101977238696], [-73.98157265672316, 40.73101985337967], [-73.98157232524832, 40.73101992536728], [-73.98157198193579, 40.73101999735303], [-73.98157163862825, 40.731020051328585], [-73.9815712953207, 40.73102010530415], [-73.98157094018053, 40.731020141267656], [-73.98157059687796, 40.73102017723304], [-73.98157024174245, 40.73102019608686], [-73.98156190795167, 40.73102043698952], [-73.9815535623828, 40.73102046266819], [-73.98154522871388, 40.73102026322103], [-73.98153690694257, 40.73101984765319], [-73.981528597069, 40.73101921596462], [-73.98152033460617, 40.73101836816105], [-73.9815121077166, 40.731017304240574], [-73.9815039400756, 40.73101602420706], [-73.9814958316808, 40.73101453706551], [-73.98148779437251, 40.73101283381281], [-73.98147983998835, 40.73101091445091], [-73.98147198036114, 40.73100879699181], [-73.98146421549347, 40.73100647243053], [-73.98145655722048, 40.73100394977402], [-73.98144902922012, 40.73100122002108], [-73.98144161964983, 40.73099830117999], [-73.98107134386707, 40.7308416776175], [-73.98106043290966, 40.73083405301969], [-73.98105244174948, 40.73082836769597], [-73.98104624367056, 40.730823817307396], [-73.98104088713055, 40.73081968219147], [-73.98103795090421, 40.73081724943475], [-73.98103559698374, 40.73081518958434], [-73.98103232473413, 40.73081217594423], [-73.98102981821414, 40.730809745059105], [-73.98102730462539, 40.73080719620619], [-73.98102482302531, 40.73080455280506], [-73.98102240655298, 40.73080183737396], [-73.98102009189755, 40.730799076033655], [-73.98101791693313, 40.73079629130312], [-73.98101656086907, 40.73079443423117], [-73.98101469604684, 40.730791663959835], [-73.98101358146172, 40.73078983844554], [-73.9810121273821, 40.73078715108863], [-73.98101131937, 40.73078540216803], [-73.98101065339723, 40.73078369649524], [-73.98101013893186, 40.730782041275944], [-73.98100975825584, 40.7307803014309], [-73.98100959873602, 40.73077929013361], [-73.98100944187189, 40.73077726756587], [-73.98100948237621, 40.73077636796461], [-73.9810096293766, 40.730775617865326], [-73.9810099017974, 40.73077507310267], [-73.9810105589171, 40.730774613051224], [-73.98101165283518, 40.73077418909217]]]]}, "properties": {"street_nam": "NO NAME", "shape_area": "2417.47830407", "shape_leng": "370.401062576", "feat_code": "3600", "status": "Updated", "sub_code": "360020", "source_id": "12360000156.0"}}, {"type": "Feature", "geometry": {"type": "MultiPolygon", "coordinates": [[[[-73.98279164346111, 40.730521504328834], [-73.98262265395576, 40.73045663153586], [-73.98233156403819, 40.73033301586577], [-73.98195417837873, 40.73017453358584], [-73.98149587249884, 40.72998085242142], [-73.98126664660676, 40.72988389362486], [-73.98098438482812, 40.72976622923655], [-73.98099380169954, 40.72975315720818], [-73.98127611551796, 40.72987084409475], [-73.9815053922744, 40.72996782359252], [-73.98196367086922, 40.73016149300854], [-73.98234104464103, 40.7303199707533], [-73.98262698363607, 40.730440406827746], [-73.98289242036365, 40.73055390703187], [-73.98288629725583, 40.73056125967397], [-73.98279164346111, 40.730521504328834]]]]}, "properties": {"street_nam": null, "shape_area": "3171.97256942", "shape_leng": "1211.78065165", "feat_code": "3600", "status": "New", "sub_code": "360010", "source_id": "0.0"}}, {"type": "Feature", "geometry": {"type": "MultiPolygon", "coordinates": [[[[-73.98760509008011, 40.72452976462038], [-73.98768861354587, 40.72441322608063], [-73.98765972816334, 40.724474889857674], [-73.98764588369083, 40.72450305359877], [-73.98761953292457, 40.724536573123125], [-73.98760509008011, 40.72452976462038]]]]}, "properties": {"street_nam": "NO NAME", "shape_area": "162.925632534", "shape_leng": "102.104324436", "feat_code": "3600", "status": "Unchanged", "sub_code": "360010", "source_id": "12360000870.0"}}, {"type": "Feature", "geometry": {"type": "MultiPolygon", "coordinates": [[[[-73.98794092573704, 40.72406993724729], [-73.98794173344453, 40.72407392478674], [-73.98794181740863, 40.724074337228735], [-73.98794271926518, 40.724074781274254], [-73.98794829373293, 40.724077527510524], [-73.98795303517745, 40.724078824740005], [-73.98796117469699, 40.72408105255068], [-73.98796468876348, 40.72408201376142], [-73.98796801866754, 40.7240802833307], [-73.98796951375041, 40.72407950724798], [-73.98796990202219, 40.72407930557444], [-73.98797261092238, 40.72407530489492], [-73.98799511443627, 40.724042065845545], [-73.98799564840147, 40.72404127795559], [-73.98801141238138, 40.72404666914588], [-73.98801181242833, 40.72404680606492], [-73.98794399596714, 40.72414269961506], [-73.98792748461827, 40.724166047188675], [-73.98790933111911, 40.724191717000714], [-73.98782661148206, 40.72430468887201], [-73.98780616121395, 40.72433261960305], [-73.98780577643205, 40.72433314455916], [-73.98773528899865, 40.724429411411116], [-73.98778905141836, 40.72428176873648], [-73.987789422508, 40.7242784512999], [-73.98779063159893, 40.724275250117884], [-73.98779263369036, 40.72427228585386], [-73.98779535182432, 40.724269671963754], [-73.9877986818214, 40.72426750839305], [-73.98780249820008, 40.72426587707474], [-73.9878431002085, 40.72425000989396], [-73.98784669347332, 40.72424510159759], [-73.98794325974168, 40.72411651813269], [-73.98794480552638, 40.724110282268136], [-73.98793352044717, 40.72408528745232], [-73.98793413498935, 40.72408401329616], [-73.98793725624705, 40.72407754346436], [-73.98794092573704, 40.72406993724729]]]]}, "properties": {"street_nam": "NO NAME", "shape_area": "1060.59781989", "shape_leng": "339.568164641", "feat_code": "3600", "status": "Unchanged", "sub_code": "360010", "source_id": "12360001160.0"}}, {"type": "Feature", "geometry": {"type": "MultiPolygon", "coordinates": [[[[-73.987525711233, 40.72464129851693], [-73.98752949546355, 40.724640829761576], [-73.98753332455999, 40.724640964352055], [-73.98753703517907, 40.72464169776822], [-73.98754046516628, 40.72464299757419], [-73.98754346894276, 40.724644807022095], [-73.98754591632091, 40.724647049554676], [-73.98754769960635, 40.72464962790528], [-73.9875487442496, 40.72465243040277], [-73.98754900292703, 40.724655336373786], [-73.98754875766338, 40.724656659195254], [-73.98754846737646, 40.72465821974622], [-73.98754715774292, 40.72466095715248], [-73.9875463384325, 40.724662142133894], [-73.98754457549438, 40.72466469038415], [-73.98753026952298, 40.72468538073515], [-73.98753009547903, 40.72468563015739], [-73.98752643936227, 40.724690918451635], [-73.98750936761121, 40.72471560495997], [-73.98750662354604, 40.72471747952235], [-73.98750342978005, 40.72471888216903], [-73.98749992481235, 40.72471975258093], [-73.98749625779062, 40.724720052952804], [-73.98749258732724, 40.72471977069478], [-73.98748907321347, 40.72471891843133], [-73.9874858657669, 40.7247175321992], [-73.98748310464771, 40.72471567144718], [-73.98748090702264, 40.72471341723381], [-73.98747936874976, 40.72471086592411], [-73.9874785560926, 40.724708129188414], [-73.98747850453898, 40.72470532319629], [-73.9874792152494, 40.724702570417044], [-73.98749909432863, 40.724673222282036], [-73.98749932520498, 40.724672882815156], [-73.98751334118865, 40.72465218883442], [-73.98751513610519, 40.724649539731104], [-73.98751858859623, 40.72464444232305], [-73.98751892721499, 40.72464394257715], [-73.98752213758345, 40.72464235172542], [-73.987525711233, 40.72464129851693]]]]}, "properties": {"street_nam": "NO NAME", "shape_area": "282.733954987", "shape_leng": "73.6209826868", "feat_code": "3600", "status": "Unchanged", "sub_code": "360080", "source_id": "12360001266.0"}}, {"type": "Feature", "geometry": {"type": "MultiPolygon", "coordinates": [[[[-73.98810019824175, 40.723850270085016], [-73.98810648006346, 40.723848909164055], [-73.98811838903184, 40.72385350659285], [-73.98812355019884, 40.723857369409565], [-73.98812389222535, 40.72385762518948], [-73.9881257320899, 40.72386153268892], [-73.98812256138538, 40.723866668866684], [-73.98810687621142, 40.723890786487544], [-73.98810600599634, 40.72389212545491], [-73.9881053500794, 40.723893133057], [-73.98810004472726, 40.72390129112263], [-73.98809132244652, 40.72391470150516], [-73.98809041315988, 40.7239161008025], [-73.9880873549737, 40.72392080204491], [-73.98807765416774, 40.72392563047195], [-73.98807076089182, 40.72392421865997], [-73.98806641590305, 40.72392332850659], [-73.98805831796197, 40.723920346080874], [-73.98805646016397, 40.723910844615055], [-73.98806073298553, 40.7239049278119], [-73.98806192994392, 40.72390326919793], [-73.98807013579525, 40.72389190562168], [-73.98807716481338, 40.7238821709442], [-73.98807767627301, 40.723881462296355], [-73.98810019824175, 40.723850270085016]]]]}, "properties": {"street_nam": "NO NAME", "shape_area": "246.280164387", "shape_leng": "70.8484788283", "feat_code": "3600", "status": "Unchanged", "sub_code": "360080", "source_id": "12360001275.0"}}, {"type": "Feature", "geometry": {"type": "MultiPolygon", "coordinates": [[[[-73.98799110330015, 40.72400136511112], [-73.98799898064775, 40.724000233091836], [-73.98800404997259, 40.724001443003985], [-73.98801150186881, 40.724003220484896], [-73.9880134820184, 40.724003693458386], [-73.9880176407017, 40.7240072427982], [-73.98801716447157, 40.72400949852428], [-73.98801615100402, 40.72401099506515], [-73.98801151344173, 40.72401784475619], [-73.9880101080838, 40.72401992028366], [-73.98800763242754, 40.724023577894314], [-73.98799564840147, 40.72404127795559], [-73.98799511443627, 40.724042065845545], [-73.98797261092238, 40.72407530489492], [-73.98796990202219, 40.72407930557444], [-73.98796951375041, 40.72407950724798], [-73.98796801866754, 40.7240802833307], [-73.98796468876348, 40.72408201376142], [-73.98796117469699, 40.72408105255068], [-73.98795303517745, 40.724078824740005], [-73.98794829373293, 40.724077527510524], [-73.98794271926518, 40.724074781274254], [-73.98794181740863, 40.724074337228735], [-73.98794173344453, 40.72407392478674], [-73.98794092573704, 40.72406993724729], [-73.9879661459481, 40.72403547289492], [-73.9879662264559, 40.72403536214069], [-73.98797952205017, 40.72401719215355], [-73.98798217761632, 40.72401356337852], [-73.98798251977358, 40.724013095149424], [-73.98799110330015, 40.72400136511112]]]]}, "properties": {"street_nam": "NO NAME", "shape_area": "256.558002693", "shape_leng": "76.5409946419", "feat_code": "3600", "status": "Unchanged", "sub_code": "360080", "source_id": "12360001276.0"}}, {"type": "Feature", "geometry": {"type": "MultiPolygon", "coordinates": [[[[-73.98869581023129, 40.72985453257274], [-73.98869711150486, 40.72985255338275], [-73.9887229744794, 40.72986374833891], [-73.98874556937423, 40.7298735354751], [-73.98876331126564, 40.72988122124698], [-73.9887816958893, 40.72988918443538], [-73.98878183786624, 40.72988961669324], [-73.98878192065429, 40.7298900579505], [-73.98878196792991, 40.729890499204274], [-73.98878196078556, 40.72989074774394], [-73.98878195601816, 40.72989094045229], [-73.98878189675649, 40.729891381695694], [-73.98878179014493, 40.729891822934476], [-73.98878163618497, 40.729892255163584], [-73.98878143487815, 40.729892669377904], [-73.98878118622295, 40.72989307458251], [-73.98878090205984, 40.7298934527684], [-73.98878057054836, 40.72989382194459], [-73.9887801916915, 40.729894164100884], [-73.98877978916427, 40.72989447923964], [-73.98877933929013, 40.729894776363615], [-73.98877887758465, 40.72989503746609], [-73.98877836853526, 40.72989526254362], [-73.98877784765295, 40.72989546060472], [-73.98875365524388, 40.72989640107689], [-73.98873238671, 40.729897228366035], [-73.98867528708041, 40.729899448821605], [-73.98867486092358, 40.7298994938051], [-73.98867442293388, 40.729899511772196], [-73.98867398494876, 40.72989950272405], [-73.98867355880577, 40.729899466661784], [-73.9886731326673, 40.72989940358427], [-73.98867271837092, 40.729899313492666], [-73.98867230407913, 40.7298991963858], [-73.98867191346842, 40.729899043260914], [-73.98867154653419, 40.729898881133295], [-73.98867119144357, 40.72989868298647], [-73.98867086002943, 40.72989847583691], [-73.98867055229637, 40.72989823266938], [-73.98867028007727, 40.7298979805002], [-73.9886700315362, 40.72989771032319], [-73.98866980667314, 40.72989742213832], [-73.98866962916152, 40.72989712495307], [-73.98866947532639, 40.72989681876501], [-73.98866935700674, 40.7298964945703], [-73.98866927419954, 40.729896170379085], [-73.98866923874222, 40.72989584619254], [-73.9886692269614, 40.72989551300321], [-73.98866926253048, 40.729895179818556], [-73.98866932177299, 40.729894855641334], [-73.98866942836386, 40.729894540473836], [-73.9886695586297, 40.72989422530867], [-73.98866973624389, 40.729893919153255], [-73.98866993752998, 40.72989363101036], [-73.98867017432696, 40.72989335187601], [-73.9886704466333, 40.72989309075533], [-73.98867738873841, 40.729882538378796], [-73.98868812928215, 40.72986621411546], [-73.98868896522345, 40.729864942679576], [-73.98869581023129, 40.72985453257274]]]]}, "properties": {"street_nam": "NO NAME", "shape_area": "293.493738446", "shape_leng": "78.1979351879", "feat_code": "3600", "status": "Unchanged", "sub_code": "360080", "source_id": "12360000145.0"}}, {"type": "Feature", "geometry": {"type": "MultiPolygon", "coordinates": [[[[-73.98672133737786, 40.725741626177744], [-73.98680835737889, 40.72562278699739], [-73.98676090166872, 40.725717831180404], [-73.98673965332296, 40.72574870088645], [-73.98672133737786, 40.725741626177744]]]]}, "properties": {"street_nam": "NO NAME", "shape_area": "168.988878687", "shape_leng": "104.992483168", "feat_code": "3600", "status": "Unchanged", "sub_code": "360010", "source_id": "12360000872.0"}}, {"type": "Feature", "geometry": {"type": "MultiPolygon", "coordinates": [[[[-73.98403767241918, 40.72943536525599], [-73.98404126993076, 40.72943483355408], [-73.98404493359455, 40.72943487458469], [-73.98404850952521, 40.729435485624926], [-73.98405184502664, 40.72943664053893], [-73.98405479806162, 40.72943829158013], [-73.98405724317077, 40.72944036759098], [-73.98405907857365, 40.729442780307544], [-73.98406022380004, 40.729445428861844], [-73.9840606327114, 40.72944819888283], [-73.98406028521181, 40.72945097420219], [-73.9840591979018, 40.729453636855496], [-73.98405655021473, 40.72945716828359], [-73.98405599604756, 40.72945790752439], [-73.98405023294536, 40.72946559616901], [-73.9840475722317, 40.72946914650575], [-73.98404567409015, 40.7294716784729], [-73.98404518268109, 40.729472333975075], [-73.98403895895432, 40.729480636702135], [-73.98403855161762, 40.729481179652346], [-73.98403001648903, 40.72949256539988], [-73.98401917114009, 40.72950703416747], [-73.98401674520443, 40.72950891409267], [-73.9840138553444, 40.72951036801282], [-73.98401063178757, 40.72951132930844], [-73.98400721422504, 40.729511757475876], [-73.98400375536451, 40.72951163182478], [-73.98400040790686, 40.7295109595803], [-73.98399732099682, 40.729509768679], [-73.98399463075143, 40.72950811407086], [-73.98399245552768, 40.729506066912506], [-73.98399089118672, 40.72950371816866], [-73.98399000872759, 40.72950117320872], [-73.9839898471871, 40.729498542800734], [-73.98399041127176, 40.72949594491194], [-73.98400129128738, 40.72948008576656], [-73.9840089515827, 40.72946891962379], [-73.98400963957614, 40.729467917453256], [-73.9840170476439, 40.729457118682426], [-73.9840255628929, 40.72944470545274], [-73.98402576183064, 40.72944441551657], [-73.98402875537022, 40.729440052067226], [-73.9840312795873, 40.72943803077555], [-73.98403429495148, 40.7294364462986], [-73.98403767241918, 40.72943536525599]]]]}, "properties": {"street_nam": "NO NAME", "shape_area": "268.204154486", "shape_leng": "72.0575677699", "feat_code": "3600", "status": "Unchanged", "sub_code": "360080", "source_id": "12360000948.0"}}, {"type": "Feature", "geometry": {"type": "MultiPolygon", "coordinates": [[[[-73.98447643276208, 40.728834867040405], [-73.98448001591804, 40.72883482880154], [-73.98448352199074, 40.728835395693956], [-73.98448677697907, 40.72883653797749], [-73.98448961990871, 40.72883820069947], [-73.98449190993547, 40.728840300093594], [-73.98449353226196, 40.72884273168543], [-73.98449440642241, 40.72884537569656], [-73.98449448983337, 40.728848099746465], [-73.98449377779097, 40.72885076965873], [-73.98449098684523, 40.72885462075837], [-73.98448942026813, 40.728856783569135], [-73.98447326190441, 40.72887908068716], [-73.98447124181236, 40.72888186748903], [-73.98446863440111, 40.72888546556993], [-73.98444918893053, 40.72891229720262], [-73.98444029289561, 40.72890852377014], [-73.98443349422365, 40.72890563942255], [-73.98442160956859, 40.728900598568885], [-73.98444289871779, 40.72887117912808], [-73.98444574769009, 40.728867240688125], [-73.98446188830611, 40.728844935466924], [-73.98446216065155, 40.72884455909108], [-73.9844631718817, 40.7288431625386], [-73.98446325121694, 40.72884305358777], [-73.98446477169965, 40.728840588200235], [-73.9844669727522, 40.72883844078402], [-73.98446974544657, 40.72883671848493], [-73.98447295245009, 40.728835507733294], [-73.98447643276208, 40.728834867040405]]]]}, "properties": {"street_nam": "NO NAME", "shape_area": "247.556452208", "shape_leng": "72.1826530647", "feat_code": "3600", "status": "Unchanged", "sub_code": "360080", "source_id": "12360001252.0"}}, {"type": "Feature", "geometry": {"type": "MultiPolygon", "coordinates": [[[[-73.98454433557885, 40.728730283894684], [-73.9845692321471, 40.7286977842738], [-73.98458136077087, 40.72870219388845], [-73.98459778004403, 40.728708164657334], [-73.98457522382203, 40.72874019903489], [-73.98457393073244, 40.72874218448326], [-73.98457307814559, 40.72874349460919], [-73.9845587049506, 40.728765566851514], [-73.9845578867038, 40.72876682295138], [-73.98455597667133, 40.728769756552396], [-73.98455495119816, 40.72877133140453], [-73.9845522518257, 40.72877337339608], [-73.98454906841368, 40.72877496146624], [-73.98454553118678, 40.72877603259681], [-73.98454178457038, 40.72877654178183], [-73.98453797890265, 40.72877646832968], [-73.98453426925104, 40.728775816763694], [-73.98453080712696, 40.72877461231857], [-73.98452773338259, 40.72877290454119], [-73.98452517229342, 40.72877076188692], [-73.98452322800696, 40.728768272619654], [-73.9845219798096, 40.728765537607046], [-73.98452147739225, 40.728762666717934], [-73.98452174203447, 40.7287597779217], [-73.9845245412147, 40.72875612403375], [-73.98452612789053, 40.72875405217658], [-73.98452760089373, 40.72875212978849], [-73.98454325450885, 40.72873169484665], [-73.98454433557885, 40.728730283894684]]]]}, "properties": {"street_nam": "NO NAME", "shape_area": "271.420769116", "shape_leng": "74.5251135322", "feat_code": "3600", "status": "Unchanged", "sub_code": "360080", "source_id": "12360001254.0"}}, {"type": "Feature", "geometry": {"type": "MultiPolygon", "coordinates": [[[[-73.98489843011085, 40.72825330350633], [-73.98490216480427, 40.72825303114192], [-73.98490588988787, 40.72825337742564], [-73.98490942899164, 40.72825432432417], [-73.98491261758849, 40.72825582949209], [-73.98491530536225, 40.72825782176951], [-73.98491736685999, 40.72826020748719], [-73.98491870385853, 40.728262874068655], [-73.98491925601604, 40.72826569813631], [-73.98491899613724, 40.72826854551085], [-73.9849180580832, 40.72827097045802], [-73.98491793608905, 40.728271284719575], [-73.98491612561699, 40.728273785195164], [-73.98491486707708, 40.72827487554635], [-73.98491364997523, 40.72827593078311], [-73.98489943551043, 40.72829322859296], [-73.98489838644572, 40.72829450627722], [-73.98489483075629, 40.72829883275526], [-73.98487511648406, 40.72832760322197], [-73.98486185670224, 40.72832130422201], [-73.98484829865787, 40.72831486290091], [-73.98487140990743, 40.728282217996075], [-73.98487157331296, 40.7282819874873], [-73.98488463273361, 40.72826354138066], [-73.98488493349475, 40.7282631154795], [-73.98488833540793, 40.72825831081145], [-73.9848888658837, 40.728257561657834], [-73.98489162083627, 40.72825562322403], [-73.98489485863328, 40.72825418103386], [-73.98489843011085, 40.72825330350633]]]]}, "properties": {"street_nam": "NO NAME", "shape_area": "238.083638785", "shape_leng": "69.7366547162", "feat_code": "3600", "status": "Unchanged", "sub_code": "360080", "source_id": "12360001255.0"}}, {"type": "Feature", "geometry": {"type": "MultiPolygon", "coordinates": [[[[-73.98533305902107, 40.72765344435277], [-73.98533673217949, 40.727652930630086], [-73.9853404679495, 40.72765298423578], [-73.98534411363296, 40.72765360515041], [-73.98534752363967, 40.72765476724073], [-73.98535055948635, 40.72765642276219], [-73.98535310044907, 40.7276585068628], [-73.98535504238016, 40.72766093488154], [-73.98535630954382, 40.72766360865329], [-73.98535684869665, 40.72766642101082], [-73.98535663855682, 40.72766925848734], [-73.98535568861882, 40.727672007619866], [-73.98535234728227, 40.72767615763993], [-73.98535197786434, 40.72767661685241], [-73.98533456549157, 40.72769824485726], [-73.98533371654024, 40.727699300145424], [-73.98533019049182, 40.72770367977105], [-73.98530375103395, 40.72773652065669], [-73.98529121786983, 40.72773138525576], [-73.98527530552398, 40.72772486533939], [-73.98530403525257, 40.72768763026962], [-73.98530515180865, 40.72768618329452], [-73.98532198658043, 40.727664364312574], [-73.98532207064768, 40.72766425536173], [-73.985329592891, 40.727654505611056], [-73.98533305902107, 40.72765344435277]]]]}, "properties": {"street_nam": "NO NAME", "shape_area": "286.916419864", "shape_leng": "78.6668460213", "feat_code": "3600", "status": "Unchanged", "sub_code": "360080", "source_id": "12360001257.0"}}, {"type": "Feature", "geometry": {"type": "MultiPolygon", "coordinates": [[[[-73.98578064373943, 40.72704351291941], [-73.98578436173521, 40.727043496268806], [-73.98578801214306, 40.727044028920155], [-73.98579145647467, 40.72704509194572], [-73.98579456453216, 40.727046643906014], [-73.98579721677493, 40.72704862535268], [-73.98579931260481, 40.727050960630706], [-73.98580077273267, 40.72705356238092], [-73.985801539179, 40.72705632883868], [-73.98580158592424, 40.727059157342765], [-73.98579813685068, 40.72706367837249], [-73.98579747142698, 40.72706454998298], [-73.9857832666384, 40.72708316625088], [-73.98577969797559, 40.72708784305326], [-73.98577434853236, 40.72709485465505], [-73.9857574583508, 40.72711699157755], [-73.98575522308501, 40.72711906607346], [-73.98575245642553, 40.72712073347357], [-73.98574928504414, 40.727121919051314], [-73.9857458557314, 40.727122566993195], [-73.98574232237428, 40.72712264850204], [-73.98573884950794, 40.7271221590957], [-73.98573559574325, 40.72712112130641], [-73.98573270903215, 40.72711958378012], [-73.98573032193399, 40.72711761587245], [-73.98572854332976, 40.72711530764781], [-73.98572745605577, 40.72711276447601], [-73.98572710980194, 40.72711010432991], [-73.98572751874677, 40.727107447879426], [-73.98574972808056, 40.72707607690125], [-73.98575209855903, 40.72707272820216], [-73.9857664777194, 40.7270524181024], [-73.98576712539712, 40.72705150326547], [-73.98577048929538, 40.72704675079538], [-73.98577357316326, 40.7270451716839], [-73.98577700138325, 40.7270440779891], [-73.98578064373943, 40.72704351291941]]]]}, "properties": {"street_nam": "NO NAME", "shape_area": "278.634345928", "shape_leng": "74.5454925293", "feat_code": "3600", "status": "Unchanged", "sub_code": "360080", "source_id": "12360001259.0"}}, {"type": "Feature", "geometry": {"type": "MultiPolygon", "coordinates": [[[[-73.98572751874677, 40.727107447879426], [-73.98572710980194, 40.72711010432991], [-73.98572745605577, 40.72711276447601], [-73.98572854332976, 40.72711530764781], [-73.98573032193399, 40.72711761587245], [-73.98573270903215, 40.72711958378012], [-73.98573559574325, 40.72712112130641], [-73.98573884950794, 40.7271221590957], [-73.98574232237428, 40.72712264850204], [-73.9857458557314, 40.727122566993195], [-73.98574928504414, 40.727121919051314], [-73.98575245642553, 40.72712073347357], [-73.98575522308501, 40.72711906607346], [-73.9857574583508, 40.72711699157755], [-73.98577434853236, 40.72709485465505], [-73.98578870876182, 40.727102249606105], [-73.98560313117173, 40.72735875811062], [-73.98545240167995, 40.72756644152572], [-73.98543515093036, 40.727558346472286], [-73.98545575495233, 40.72752924373134], [-73.98545575796415, 40.72752629096332], [-73.9854549252648, 40.72752340742892], [-73.98545329351997, 40.72752072730856], [-73.98545093964265, 40.72751837848417], [-73.98544797606104, 40.72751646993149], [-73.98544454124867, 40.72751509351988], [-73.98544079854302, 40.72751431230556], [-73.98543692194059, 40.727514163231355], [-73.98543308307643, 40.727514656224585], [-73.9854397684496, 40.72750471185081], [-73.98545978693652, 40.72750082148078], [-73.9854750137015, 40.727497306015124], [-73.98548557059522, 40.7274890604866], [-73.98557639694187, 40.72736564635897], [-73.98554885012598, 40.72735328432181], [-73.9855942604886, 40.72729312341444], [-73.98559917640087, 40.727287644433055], [-73.98560316703532, 40.72728589794491], [-73.98563349624517, 40.72728397014159], [-73.9856385605455, 40.727281991454895], [-73.98569392677771, 40.727205767571554], [-73.98573322973688, 40.72715333041424], [-73.98573401200466, 40.72714300617709], [-73.98572188794786, 40.72712377430757], [-73.98572243379887, 40.72711747441527], [-73.98572751874677, 40.727107447879426]]]]}, "properties": {"street_nam": "NO NAME", "shape_area": "1382.16950225", "shape_leng": "436.538430995", "feat_code": "3600", "status": "Unchanged", "sub_code": "360010", "source_id": "12360001260.0"}}, {"type": "Feature", "geometry": {"type": "MultiPolygon", "coordinates": [[[[-73.98630283030744, 40.72632446131796], [-73.98630612103379, 40.7263240510773], [-73.98630944714823, 40.72632423697763], [-73.98631262399788, 40.72632500999205], [-73.9863154740388, 40.72632632777538], [-73.98631784104025, 40.726328115566965], [-73.98631959244982, 40.72633027429507], [-73.98632063241325, 40.72633268598161], [-73.98632090059057, 40.726335214642646], [-73.98632038517326, 40.72633772159832], [-73.98631911223114, 40.72634006637242], [-73.98629769461346, 40.72636899987997], [-73.98629752766755, 40.72636922498735], [-73.98628391150443, 40.72638761806257], [-73.98628109710158, 40.7263914205766], [-73.9862781181204, 40.72639544549664], [-73.9862757077481, 40.72639733267615], [-73.98627276481835, 40.72639872901471], [-73.98626946571744, 40.72639955078599], [-73.98626600458005, 40.72639974938573], [-73.98626258618611, 40.72639931313161], [-73.98625941294065, 40.726398268162576], [-73.9862566730369, 40.72639667663624], [-73.98625452743701, 40.7263946313243], [-73.98625310513732, 40.726392254711385], [-73.98625248896705, 40.726389686386284], [-73.98625271440507, 40.72638707943979], [-73.98625697331164, 40.726381306785285], [-73.98626020093958, 40.726376931597464], [-73.98627346546773, 40.726358950916214], [-73.98627394736211, 40.726358297204136], [-73.98629707235564, 40.72632695054014], [-73.9862997572608, 40.72632544610915], [-73.98630283030744, 40.72632446131796]]]]}, "properties": {"street_nam": "NO NAME", "shape_area": "221.023506393", "shape_leng": "69.8959464923", "feat_code": "3600", "status": "Unchanged", "sub_code": "360080", "source_id": "12360001261.0"}}, {"type": "Feature", "geometry": {"type": "MultiPolygon", "coordinates": [[[[-73.9862024344907, 40.7264638805355], [-73.98620588622946, 40.72646335685283], [-73.98620940649951, 40.72646342481269], [-73.98621282011638, 40.72646407989151], [-73.98621596018673, 40.72646529055147], [-73.98621867284368, 40.72646699734064], [-73.98622082553172, 40.72646911649577], [-73.9862223117403, 40.726471544445715], [-73.98622305928939, 40.72647416141419], [-73.98622303151093, 40.72647683952443], [-73.98622222961575, 40.72647944730236], [-73.98621968516048, 40.726482890544084], [-73.98621905526281, 40.72648374235019], [-73.98620390929564, 40.7265042361199], [-73.9862028839351, 40.72650562368133], [-73.9862001038582, 40.72650938477397], [-73.98617974108687, 40.72653693700469], [-73.9861768146436, 40.72653870435242], [-73.98617344206208, 40.72653993044063], [-73.98616979380633, 40.72654055315471], [-73.98616605572182, 40.72654054189953], [-73.98616241719873, 40.72653989669794], [-73.9861590605186, 40.726538649089605], [-73.98615615848647, 40.72653686393201], [-73.98615385667723, 40.726534631293596], [-73.9861522710689, 40.72653206375193], [-73.98615148330877, 40.726529291890714], [-73.98615153242947, 40.72652645529347], [-73.98615241721701, 40.72652369894204], [-73.98617508986979, 40.72649373453004], [-73.98617598735053, 40.72649254956801], [-73.98619131201069, 40.72647229535875], [-73.98619204846537, 40.72647132289739], [-73.98619410509254, 40.72646860450751], [-73.98619639476406, 40.72646657053232], [-73.9861992181884, 40.726464969765864], [-73.9862024344907, 40.7264638805355]]]]}, "properties": {"street_nam": "NO NAME", "shape_area": "257.989956578", "shape_leng": "72.291994779", "feat_code": "3600", "status": "Unchanged", "sub_code": "360080", "source_id": "12360001262.0"}}, {"type": "Feature", "geometry": {"type": "MultiPolygon", "coordinates": [[[[-73.98615241721701, 40.72652369894204], [-73.98615153242947, 40.72652645529347], [-73.98615148330877, 40.726529291890714], [-73.9861522710689, 40.72653206375193], [-73.98615385667723, 40.726534631293596], [-73.98615615848647, 40.72653686393201], [-73.9861590605186, 40.726538649089605], [-73.98616241719873, 40.72653989669794], [-73.98616605572182, 40.72654054189953], [-73.98616979380633, 40.72654055315471], [-73.98617344206208, 40.72653993044063], [-73.9861768146436, 40.72653870435242], [-73.98617974108687, 40.72653693700469], [-73.9862001038582, 40.72650938477397], [-73.98621729061392, 40.72651697722236], [-73.98598442302327, 40.72683559959628], [-73.98604075450136, 40.72667969142644], [-73.98604463587806, 40.726673773752346], [-73.98604904929188, 40.72667083142401], [-73.98608222631145, 40.72666254805541], [-73.9861507617167, 40.72657265671211], [-73.98615034846229, 40.72656766874342], [-73.98614072149778, 40.72654502608897], [-73.98614426262873, 40.72653587104081], [-73.98615241721701, 40.72652369894204]]]]}, "properties": {"street_nam": "NO NAME", "shape_area": "1002.11801792", "shape_leng": "291.691983031", "feat_code": "3600", "status": "Unchanged", "sub_code": "360010", "source_id": "12360001263.0"}}, {"type": "Feature", "geometry": {"type": "MultiPolygon", "coordinates": [[[[-73.98664733429517, 40.72585874772896], [-73.98665083324148, 40.72585874633361], [-73.98665425513795, 40.72585929874232], [-73.98665745202989, 40.72586038152465], [-73.98666028188593, 40.725861946036694], [-73.98666262161755, 40.725863923825536], [-73.98666436944546, 40.72586623023159], [-73.98666544726788, 40.72586876168726], [-73.9866658101267, 40.72587140922577], [-73.9866654391065, 40.7258740557788], [-73.98666435316908, 40.72587658608338], [-73.98666393403778, 40.72587713534535], [-73.9866625985001, 40.72587888848167], [-73.98665014910726, 40.72589404710819], [-73.986647311142, 40.72589750383322], [-73.98663428159875, 40.725913369290296], [-73.98662368746868, 40.725926268752126], [-73.98661991141377, 40.72592689056511], [-73.98661604670785, 40.72592689101645], [-73.98661226971862, 40.72592627102716], [-73.98660875089017, 40.72592505853283], [-73.98660565119152, 40.7259233084833], [-73.98660311028081, 40.72592110013961], [-73.98660124413797, 40.7259185343723], [-73.98660013796443, 40.72591572735696], [-73.98659984026503, 40.72591280697161], [-73.98660036640113, 40.7259099046923], [-73.98662016729274, 40.72588460179113], [-73.98662216940305, 40.72588204367765], [-73.98663423060498, 40.725866631966056], [-73.98663554245428, 40.72586495537055], [-73.98663789028528, 40.7258619560475], [-73.98664071840143, 40.72586038858946], [-73.98664391336024, 40.72585930384676], [-73.98664733429517, 40.72585874772896]]]]}, "properties": {"street_nam": "NO NAME", "shape_area": "224.957580618", "shape_leng": "64.9545024834", "feat_code": "3600", "status": "Unchanged", "sub_code": "360080", "source_id": "12360001264.0"}}, {"type": "Feature", "geometry": {"type": "MultiPolygon", "coordinates": [[[[-73.98628109710158, 40.7263914205766], [-73.98628391150443, 40.72638761806257], [-73.98629752766755, 40.72636922498735], [-73.98629769461346, 40.72636899987997], [-73.98631911223114, 40.72634006637242], [-73.98632038517326, 40.72633772159832], [-73.98632090059057, 40.726335214642646], [-73.98632063241325, 40.72633268598161], [-73.98631959244982, 40.72633027429507], [-73.98631784104025, 40.726328115566965], [-73.9863154740388, 40.72632632777538], [-73.98631262399788, 40.72632500999205], [-73.98630944714823, 40.72632423697763], [-73.98630612103379, 40.7263240510773], [-73.98630283030744, 40.72632446131796], [-73.9862997572608, 40.72632544610915], [-73.98629707235564, 40.72632695054014], [-73.98631308426637, 40.72630285572526], [-73.98632014315844, 40.72630000375172], [-73.98635497022335, 40.72629070112404], [-73.98635930520034, 40.72628910053273], [-73.98646269325661, 40.72614729247668], [-73.98657937082241, 40.725989803510636], [-73.9865806119659, 40.725980704011825], [-73.98657249628538, 40.72594735901827], [-73.98660036640113, 40.7259099046923], [-73.98659984026503, 40.72591280697161], [-73.98660013796443, 40.72591572735696], [-73.98660124413797, 40.7259185343723], [-73.98660311028081, 40.72592110013961], [-73.98660565119152, 40.7259233084833], [-73.98660875089017, 40.72592505853283], [-73.98661226971862, 40.72592627102716], [-73.98661604670785, 40.72592689101645], [-73.98661991141377, 40.72592689056511], [-73.98662368746868, 40.725926268752126], [-73.98663428159875, 40.725913369290296], [-73.98664925752519, 40.725919046936006], [-73.98648908130107, 40.7261402571979], [-73.98629916923626, 40.726398996909204], [-73.98628109710158, 40.7263914205766]]]]}, "properties": {"street_nam": "NO NAME", "shape_area": "1277.88270422", "shape_leng": "439.06959781", "feat_code": "3600", "status": "Unchanged", "sub_code": "360010", "source_id": "12360001265.0"}}, {"type": "Feature", "geometry": {"type": "MultiPolygon", "coordinates": [[[[-73.9849760895105, 40.7281361709867], [-73.9850421920846, 40.72804518318382], [-73.98506895575123, 40.72805630433841], [-73.98508461721121, 40.728062811643376], [-73.98499602084382, 40.728183857324225], [-73.9849948071602, 40.72818551590314], [-73.98497272931199, 40.728176514240175], [-73.98496922168046, 40.72817249751341], [-73.98496906783706, 40.72817232099361], [-73.98496642189322, 40.728168564626266], [-73.98496483329365, 40.72816354588364], [-73.98496425555717, 40.728158665951334], [-73.98496603147123, 40.72815191687025], [-73.9849760895105, 40.7281361709867]]]]}, "properties": {"street_nam": "NO NAME", "shape_area": "664.910917754", "shape_leng": "125.323097729", "feat_code": "3600", "status": "Updated", "sub_code": "360010", "source_id": "12360000874.0"}}, {"type": "Feature", "geometry": {"type": "MultiPolygon", "coordinates": [[[[-73.98854085507689, 40.727274965112365], [-73.98883513003095, 40.72687366423657], [-73.98886184025433, 40.726837240338234], [-73.98888210756127, 40.72680819998453], [-73.98888540374988, 40.72680347623308], [-73.9889181731721, 40.72681727158586], [-73.98891439040763, 40.72682247436213], [-73.98889143925523, 40.726854045793054], [-73.98887159744127, 40.72687975250542], [-73.9888510935943, 40.726872070081605], [-73.98884713374981, 40.726874390309526], [-73.98884404262351, 40.72687738510263], [-73.98884201555649, 40.726880866273575], [-73.98873652407045, 40.727024894199076], [-73.98873835218565, 40.72702901330544], [-73.98875074414521, 40.727036981318726], [-73.98875236529145, 40.72704005311287], [-73.9887537224105, 40.727043497691824], [-73.98875287327105, 40.7270460379444], [-73.98870157059392, 40.72711623659287], [-73.9886972687619, 40.727117843579016], [-73.98869430727319, 40.72711711027406], [-73.98868347939145, 40.72711363504721], [-73.98867844306547, 40.727111811021686], [-73.98867553810427, 40.727112786887616], [-73.98867108464638, 40.7271150530303], [-73.98866897123749, 40.72711803800924], [-73.98855609461218, 40.727271659959534], [-73.98855079741575, 40.72727933176825], [-73.98855112614073, 40.727281333632064], [-73.98855788946351, 40.72729024213779], [-73.98856082782504, 40.727294721560725], [-73.9885631292225, 40.727299976258415], [-73.98856333241939, 40.72730230589494], [-73.98856312844946, 40.72730448060351], [-73.98856131921646, 40.72730760879153], [-73.9885329963, 40.727344833009575], [-73.98853203266528, 40.72734542004538], [-73.98853100273638, 40.72734604669692], [-73.98852781142268, 40.7273463498505], [-73.98850089228684, 40.72733587965068], [-73.98850009465497, 40.72733481697058], [-73.98850009491665, 40.72733330051373], [-73.9885003092225, 40.72733297725246], [-73.98851888397412, 40.72730492555432], [-73.98854085507689, 40.727274965112365]]]]}, "properties": {"street_nam": "NO NAME", "shape_area": "1281.00794376", "shape_leng": "482.282886014", "feat_code": "3600", "status": "Updated", "sub_code": "360010", "source_id": "12360001116.0"}}, {"type": "Feature", "geometry": {"type": "MultiPolygon", "coordinates": [[[[-73.98506895575123, 40.72805630433841], [-73.98520438197014, 40.72787079900458], [-73.98529869881217, 40.72774256872928], [-73.98527719528717, 40.72773303049422], [-73.98527482123237, 40.72773092209956], [-73.98527425832924, 40.727728467240624], [-73.98527530552398, 40.72772486533939], [-73.98529121786983, 40.72773138525576], [-73.98530375103395, 40.72773652065669], [-73.98533019049182, 40.72770367977105], [-73.98534593967186, 40.72770935498183], [-73.98508461721121, 40.728062811643376], [-73.98506895575123, 40.72805630433841]]]]}, "properties": {"street_nam": "NO NAME", "shape_area": "795.266940378", "shape_leng": "321.514680056", "feat_code": "3600", "status": "Updated", "sub_code": "360010", "source_id": "12360001258.0"}}, {"type": "Feature", "geometry": {"type": "MultiPolygon", "coordinates": [[[[-73.9872451234399, 40.729051723509656], [-73.9874916592215, 40.728718639799965], [-73.98755932812449, 40.72862363266009], [-73.98757257274053, 40.72860503768562], [-73.98757420526229, 40.728604150860725], [-73.98757816949008, 40.72860450608889], [-73.98759635356657, 40.72861249015803], [-73.98759938442574, 40.72861603758815], [-73.98760031572013, 40.728617634290295], [-73.98760124800046, 40.728620294493325], [-73.9876005477588, 40.72862384242212], [-73.98759223700563, 40.728635588662556], [-73.98752359236812, 40.728732616457314], [-73.98750383640264, 40.72872396943187], [-73.98725682960428, 40.72905669921538], [-73.98726068580183, 40.72907119512937], [-73.98726430307084, 40.7290785346748], [-73.98726743675472, 40.7290829385085], [-73.9872389473486, 40.7291226342771], [-73.98723350663879, 40.72913021595654], [-73.98723218305871, 40.72913107939756], [-73.98723104667403, 40.72913107927155], [-73.98720096580075, 40.7291178339527], [-73.9872003977467, 40.72911711438321], [-73.98720039791259, 40.72911625079545], [-73.98720482156749, 40.72910986848201], [-73.9872451234399, 40.729051723509656]]]]}, "properties": {"street_nam": "NO NAME", "shape_area": "1274.55692273", "shape_leng": "456.175029363", "feat_code": "3600", "status": "Updated", "sub_code": "360010", "source_id": "12360000138.0"}}, {"type": "Feature", "geometry": {"type": "MultiPolygon", "coordinates": [[[[-73.98457522382203, 40.72874019903489], [-73.98459778004403, 40.728708164657334], [-73.98458136077087, 40.72870219388845], [-73.9845692321471, 40.7286977842738], [-73.98457377804871, 40.72869608922506], [-73.98457611120493, 40.728695952660296], [-73.98458257163553, 40.728697455573965], [-73.98459100748458, 40.7286999150918], [-73.98459603249768, 40.72869950603273], [-73.98459998169287, 40.728698277366625], [-73.98460249400193, 40.72869636592267], [-73.98462978362454, 40.72866045998423], [-73.98475645640538, 40.72849001503145], [-73.98481133556666, 40.7284146983326], [-73.98484580774883, 40.728363307240514], [-73.98486765272384, 40.72833460819914], [-73.98486798223436, 40.72833268655684], [-73.98486710436963, 40.728330681008586], [-73.98486569962776, 40.728329212094245], [-73.98486358699948, 40.72832784034175], [-73.9848554794, 40.72832396348619], [-73.98485301046199, 40.72832263761262], [-73.9848510694801, 40.728321237066204], [-73.98484986235201, 40.728320067146555], [-73.98484799487939, 40.72831814521522], [-73.98484829865787, 40.72831486290091], [-73.98486185670224, 40.72832130422201], [-73.98487511648406, 40.72832760322197], [-73.98489483075629, 40.72829883275526], [-73.9849136092833, 40.72830404195853], [-73.98473813164684, 40.728544895006905], [-73.98459020470852, 40.728746891820094], [-73.98457522382203, 40.72874019903489]]]]}, "properties": {"street_nam": "NO NAME", "shape_area": "1039.04898005", "shape_leng": "408.192004269", "feat_code": "3600", "status": "Updated", "sub_code": "360010", "source_id": "12360001256.0"}}, {"type": "Feature", "geometry": {"type": "MultiPolygon", "coordinates": [[[[-73.98409674010453, 40.729344953361846], [-73.98416421884382, 40.72925130886691], [-73.98419082659169, 40.7292624446104], [-73.9842064716677, 40.72926899165386], [-73.98413847853568, 40.72936056943526], [-73.98412488249178, 40.72937888210528], [-73.98409978863633, 40.729368053629194], [-73.98409513307845, 40.72936273908506], [-73.98409351338803, 40.72935918995699], [-73.98409306398909, 40.729357423997556], [-73.98409312245808, 40.729355472603515], [-73.98409361543177, 40.72935321599708], [-73.98409487703432, 40.72934935479049], [-73.98409674010453, 40.729344953361846]]]]}, "properties": {"street_nam": "NO NAME", "shape_area": "591.040904415", "shape_leng": "115.28027273", "feat_code": "3600", "status": "Updated", "sub_code": "360010", "source_id": "12360000875.0"}}, {"type": "Feature", "geometry": {"type": "MultiPolygon", "coordinates": [[[[-73.986439884104, 40.730159294843844], [-73.98666965309799, 40.72984416440655], [-73.98670441777134, 40.72979469808933], [-73.98671292421506, 40.72978259353499], [-73.98672458531284, 40.729788437379334], [-73.98673112692734, 40.72979319912193], [-73.9867351088104, 40.729800340613345], [-73.98673681460919, 40.72980618330919], [-73.98673717156457, 40.72980887587084], [-73.98673655994938, 40.72981290647653], [-73.98670225408478, 40.729858943719904], [-73.98667987500853, 40.729848797805346], [-73.98656622280006, 40.73000482922056], [-73.98638641925506, 40.73024951588325], [-73.98639822693652, 40.7302740066066], [-73.98639881680444, 40.73027805085981], [-73.98637771731785, 40.73030821539948], [-73.98636927467615, 40.73032028481591], [-73.98636661659441, 40.73032297972307], [-73.98636366317106, 40.73032275514677], [-73.98633407551799, 40.730309705072415], [-73.98633440964896, 40.7303081832528], [-73.98634439869545, 40.73029408247517], [-73.98637814070635, 40.730246452274876], [-73.986439884104, 40.730159294843844]]]]}, "properties": {"street_nam": "NO NAME", "shape_area": "1038.77056537", "shape_leng": "466.327229801", "feat_code": "3600", "status": "Updated", "sub_code": "360010", "source_id": "12360001283.0"}}, {"type": "Feature", "geometry": {"type": "MultiPolygon", "coordinates": [[[[-73.98367654507322, 40.72997337929303], [-73.98368137045439, 40.72996682967801], [-73.98368488025325, 40.72996206288329], [-73.98369081043745, 40.72995401317721], [-73.98369047259618, 40.72995110898938], [-73.98368930965106, 40.72994833165637], [-73.98368737602208, 40.72994581446119], [-73.98368476756312, 40.72994367898592], [-73.98368160735853, 40.729942029707004], [-73.9836780504603, 40.729940944090146], [-73.98367426849862, 40.72994047619005], [-73.98367044258143, 40.729940648545224], [-73.98366675974302, 40.729941452176966], [-73.98365065550249, 40.72996289730297], [-73.98364842435764, 40.72996199377611], [-73.98366711504518, 40.72993589789083], [-73.98367211075588, 40.729934703624494], [-73.98367620310084, 40.72993418551184], [-73.98367893154537, 40.72993457491824], [-73.98369636414378, 40.72994130688794], [-73.9837294782034, 40.729898163705876], [-73.98397448860314, 40.729565582626776], [-73.98400203288763, 40.72952205137016], [-73.98400273422523, 40.72951970654327], [-73.9840025939487, 40.72951725443895], [-73.98400175397911, 40.72951522817794], [-73.98398428069028, 40.72950575059778], [-73.98398297411633, 40.72950460316813], [-73.98398327642967, 40.72950269143046], [-73.98399986029487, 40.729479463316295], [-73.98400129128738, 40.72948008576656], [-73.98399041127176, 40.72949594491194], [-73.9839898471871, 40.729498542800734], [-73.98399000872759, 40.72950117320872], [-73.98399089118672, 40.72950371816866], [-73.98399245552768, 40.729506066912506], [-73.98399463075143, 40.72950811407086], [-73.98399732099682, 40.729509768679], [-73.98400040790686, 40.7295109595803], [-73.98400375536451, 40.72951163182478], [-73.98400721422504, 40.729511757475876], [-73.98401063178757, 40.72951132930844], [-73.9840138553444, 40.72951036801282], [-73.98401674520443, 40.72950891409267], [-73.98401917114009, 40.72950703416747], [-73.98403001648903, 40.72949256539988], [-73.98404360323258, 40.72949846831606], [-73.98393075993918, 40.72965418657497], [-73.98390051705121, 40.72969592002145], [-73.98369425457197, 40.729980548048914], [-73.98367654507322, 40.72997337929303]]]]}, "properties": {"street_nam": "NO NAME", "shape_area": "1151.29288677", "shape_leng": "477.012015388", "feat_code": "3600", "status": "Updated", "sub_code": "360010", "source_id": "12360000950.0"}}, {"type": "Feature", "geometry": {"type": "MultiPolygon", "coordinates": [[[[-73.98587738393434, 40.73093570954324], [-73.98591715587763, 40.73088078790454], [-73.98592587233556, 40.73088452157756], [-73.98593366926607, 40.73091507587963], [-73.98590959989154, 40.730948029743075], [-73.98589856872795, 40.73096313442101], [-73.9858667944127, 40.73095033159981], [-73.98587738393434, 40.73093570954324]]]]}, "properties": {"street_nam": null, "shape_area": "256.918007094", "shape_leng": "73.0348985944", "feat_code": "3600", "status": "New", "sub_code": "360010", "source_id": "0.0"}}, {"type": "Feature", "geometry": {"type": "MultiPolygon", "coordinates": [[[[-73.98563815675979, 40.730929660956825], [-73.98535399526891, 40.73080955227538], [-73.98499964186254, 40.73066057157266], [-73.98481185742293, 40.73058117794514], [-73.9846393209496, 40.73050897210282], [-73.98458875374982, 40.730491033521524], [-73.984297563943, 40.730368303506324], [-73.9841233335295, 40.730290758443424], [-73.9840012119965, 40.73023930089442], [-73.98382457002849, 40.730165599313665], [-73.98368716155805, 40.73010622831511], [-73.98370432966333, 40.73008137491033], [-73.98374029727857, 40.730103473970786], [-73.98383253936379, 40.730154547591624], [-73.98400931151124, 40.730228303208875], [-73.9841303262435, 40.73027966154086], [-73.98430569538273, 40.730357319312105], [-73.98459627913131, 40.730479794381964], [-73.98464682501883, 40.73049772485259], [-73.98481987635732, 40.73057014687364], [-73.98500767379562, 40.73064954589299], [-73.98536202716124, 40.73079852657121], [-73.9856461933543, 40.73091863703464], [-73.98574306047111, 40.73095942228751], [-73.98573503690815, 40.7309704507206], [-73.98563815675979, 40.730929660956825]]]]}, "properties": {"street_nam": null, "shape_area": "3088.97300925", "shape_leng": "1313.70929329", "feat_code": "3600", "status": "New", "sub_code": "360010", "source_id": "0.0"}}, {"type": "Feature", "geometry": {"type": "MultiPolygon", "coordinates": [[[[-73.98513377441583, 40.73151761629556], [-73.9846857204891, 40.73132902355296], [-73.98432292283299, 40.73117641420865], [-73.9836602195637, 40.73089719239607], [-73.98324594548573, 40.730722885388545], [-73.98325886165604, 40.730703483111554], [-73.9836577667638, 40.73086838568465], [-73.98394825069136, 40.730991852926124], [-73.98436537023268, 40.73116734285541], [-73.98458658716515, 40.73126002418263], [-73.98504117050454, 40.731451872598356], [-73.98531241423655, 40.731567461643245], [-73.98529998880056, 40.73158586734816], [-73.98513377441583, 40.73151761629556]]]]}, "properties": {"street_nam": null, "shape_area": "5532.80165325", "shape_leng": "1316.19615879", "feat_code": "3600", "status": "New", "sub_code": "360010", "source_id": "0.0"}}, {"type": "Feature", "geometry": {"type": "MultiPolygon", "coordinates": [[[[-73.98444918893053, 40.72891229720262], [-73.98446863440111, 40.72888546556993], [-73.98447124181236, 40.72888186748903], [-73.98448364250417, 40.728887208276504], [-73.98448138795955, 40.728890313826994], [-73.9842418402137, 40.7292202753819], [-73.9842064716677, 40.72926899165386], [-73.98419082659169, 40.7292624446104], [-73.9842635090172, 40.72916292315084], [-73.98430294483484, 40.72910892503168], [-73.98430350666167, 40.7291057958408], [-73.98430313320468, 40.729103236544375], [-73.98430145142079, 40.729101956692354], [-73.9842887134341, 40.72909621511307], [-73.98428219885783, 40.7290932785659], [-73.98428070430563, 40.72909114595748], [-73.9842805178461, 40.729088728066365], [-73.98432820210228, 40.72902360347858], [-73.9843298844196, 40.729022608645515], [-73.98433343581661, 40.729021755446574], [-73.98433605304825, 40.729021755802634], [-73.98435917985589, 40.72903084868044], [-73.98436108583495, 40.729030124029904], [-73.98441617338129, 40.72894828967161], [-73.98444029289561, 40.72890852377014], [-73.98444918893053, 40.72891229720262]]]]}, "properties": {"street_nam": "NO NAME", "shape_area": "1057.40662673", "shape_leng": "344.744671143", "feat_code": "3600", "status": "Updated", "sub_code": "360010", "source_id": "12360001253.0"}}, {"type": "Feature", "geometry": {"type": "MultiPolygon", "coordinates": [[[[-73.97853363161221, 40.729726493944746], [-73.9785339393887, 40.72972648499704], [-73.97853425899685, 40.729726494061694], [-73.9785345667675, 40.729726503124155], [-73.97853488637273, 40.7297265211939], [-73.9785351941376, 40.729726548266534], [-73.9785355018996, 40.729726584344256], [-73.97853580965871, 40.72972662942707], [-73.97853611741489, 40.72972668351493], [-73.97853642516819, 40.729726746607895], [-73.97853672108113, 40.72972681870373], [-73.97853701699408, 40.72972689079958], [-73.97853731290412, 40.729726971900504], [-73.97853759697092, 40.72972707100939], [-73.97853788103772, 40.72972717011828], [-73.97896284512493, 40.729907939182866], [-73.97896296585125, 40.729907989633396], [-73.97924101581917, 40.730023819377294], [-73.9792535619417, 40.730029044587816], [-73.97939450473778, 40.73008776413963], [-73.97981248136816, 40.73026344633833], [-73.9798127535907, 40.73026358146231], [-73.97981302581323, 40.730263716586315], [-73.97981328619544, 40.730263860713336], [-73.97981354657497, 40.730264013845414], [-73.97981379511424, 40.73026417598051], [-73.97981403181598, 40.73026433811354], [-73.97981426851497, 40.73026450925164], [-73.97981449337371, 40.730264689392754], [-73.97981470639218, 40.73026487853689], [-73.9798149075731, 40.730265067678936], [-73.97981510875402, 40.73026525682099], [-73.97981529809469, 40.73026545496605], [-73.9798154874326, 40.73026566211619], [-73.97981565309547, 40.73026586926214], [-73.97981581875558, 40.73026608541321], [-73.97981597257818, 40.73026630156224], [-73.97981611456049, 40.73026652671424], [-73.97981624470525, 40.73026675186417], [-73.97981636301249, 40.73026697701205], [-73.97981648131699, 40.73026721116497], [-73.9798165759464, 40.730267445313764], [-73.97981667057583, 40.73026767946257], [-73.97981675336499, 40.73026792261438], [-73.97981682431931, 40.730268156759024], [-73.97981687159584, 40.7302683999046], [-73.97981691887237, 40.73026864305019], [-73.97981695430865, 40.730268895198755], [-73.97981698974763, 40.73026913834229], [-73.97981700151152, 40.73026938148163], [-73.97981700143517, 40.73026963362399], [-73.97981698952397, 40.73026987675919], [-73.97981696577526, 40.73027011989233], [-73.9798169420238, 40.73027037203052], [-73.97981689459999, 40.73027061515948], [-73.97981684717617, 40.73027085828847], [-73.97981677607727, 40.73027110141331], [-73.9798167049811, 40.730271335533054], [-73.97981662204465, 40.7302715786558], [-73.97981651543586, 40.73027181276932], [-73.97981640882705, 40.73027204688287], [-73.97981629038344, 40.7302722719892], [-73.97981617193982, 40.73027249709558], [-73.97981602982111, 40.73027272219779], [-73.9798158758676, 40.73027293829284], [-73.97981572191406, 40.730273154387895], [-73.979815556123, 40.73027337048087], [-73.97981537849712, 40.73027357756669], [-73.97981518903642, 40.73027377564534], [-73.97981499957571, 40.730273973724], [-73.97981478644266, 40.730274162793435], [-73.9798145733096, 40.73027435186285], [-73.97981436017926, 40.73027453192721], [-73.97981412337656, 40.73027470298229], [-73.97981388657387, 40.73027487403735], [-73.97981364977389, 40.73027503608737], [-73.97981338930157, 40.73027518912815], [-73.979813128832, 40.730275333163846], [-73.9798128683624, 40.73027547719955], [-73.979812596058, 40.73027561222807], [-73.97981232375629, 40.73027573825154], [-73.97981203961704, 40.73027586427291], [-73.97981174364573, 40.73027597228202], [-73.97981144767441, 40.73027608029116], [-73.9798111517058, 40.73027617929522], [-73.97981085573991, 40.73027626929417], [-73.97981054793924, 40.730276350285955], [-73.97981024014128, 40.73027642227269], [-73.97980992050849, 40.730276485252226], [-73.97980961271598, 40.73027653922876], [-73.97980929308594, 40.73027659320324], [-73.97980897346133, 40.73027662916754], [-73.97980865383674, 40.73027666513184], [-73.97980833421761, 40.73027668308595], [-73.97980800276093, 40.73027670103801], [-73.97980768314453, 40.73027670998704], [-73.97980735169607, 40.73027670092382], [-73.9797982013185, 40.73027655523751], [-73.97978905101205, 40.73027617541825], [-73.97977992444903, 40.73027557047531], [-73.97977082162694, 40.730274749413795], [-73.97976176622629, 40.73027369422771], [-73.97975275824182, 40.73027242292718], [-73.97974380951379, 40.73027092650926], [-73.97973493187993, 40.73026920497604], [-73.97972612533749, 40.7302672673326], [-73.97971741355899, 40.73026512258826], [-73.97970879654986, 40.73026275273278], [-73.97970027430485, 40.73026017577645], [-73.97969188233648, 40.73025739172547], [-73.97968360881018, 40.73025439157278], [-73.97931758060076, 40.73010062762044], [-73.97925354803873, 40.73007370080261], [-73.97921607540252, 40.73005794325066], [-73.97895790881878, 40.72994942110696], [-73.97875229675273, 40.72986298856157], [-73.97862661149087, 40.72981048366322], [-73.97861949812462, 40.72980752867464], [-73.97861252686631, 40.72980439361025], [-73.97860568587565, 40.72980108747306], [-73.97859899883046, 40.72979760126236], [-73.97859247756253, 40.72979395299056], [-73.97858611023717, 40.72979013365039], [-73.97857990868614, 40.7297861612542], [-73.97857389658726, 40.72978202680142], [-73.97856806209731, 40.72977774830003], [-73.97856241705371, 40.72977332575222], [-73.97855698513139, 40.72976875916247], [-73.97855174265544, 40.729764048526356], [-73.97854671329198, 40.729759220863585], [-73.97854189704692, 40.72975425816409], [-73.97853730575183, 40.72974917844017], [-73.97853292756635, 40.729743990694736], [-73.97852879800563, 40.7297386859294], [-73.97852489338901, 40.72973328214991], [-73.97852490530191, 40.7297330480199], [-73.97852491721771, 40.72973280488481], [-73.97852495280551, 40.729732570759225], [-73.97852500023076, 40.72973233663589], [-73.97852504765599, 40.7297321025125], [-73.97852511875612, 40.72973186839354], [-73.97852518985627, 40.72973163427457], [-73.97852527279093, 40.72973140916291], [-73.97852536756307, 40.72973118405343], [-73.97852547417264, 40.72973095894616], [-73.97852559261965, 40.72973073384112], [-73.97852571106375, 40.72973051774115], [-73.97852585318276, 40.729730301645596], [-73.97852599530178, 40.72973008555006], [-73.97852614925532, 40.72972987846178], [-73.97852631504341, 40.72972968038082], [-73.9785264808315, 40.72972948229986], [-73.97852667029449, 40.72972928422331], [-73.97852685975457, 40.72972909515183], [-73.97852704921175, 40.72972891508546], [-73.9785272623438, 40.729728735023485], [-73.97852747547299, 40.7297285639666], [-73.9785277004396, 40.72972839291192], [-73.9785279254033, 40.72972823086235], [-73.978528174039, 40.72972807782223], [-73.97852841083724, 40.72972792477998], [-73.97852865947, 40.72972778074497], [-73.97852891993732, 40.729727645717254], [-73.97852918040176, 40.72972751969461], [-73.97852945270364, 40.72972739367419], [-73.97852972499972, 40.729727285663934], [-73.97853000913325, 40.72972717765588], [-73.97853029326386, 40.72972707865292], [-73.97853057739448, 40.72972697964995], [-73.97853087335675, 40.729726898659365], [-73.978531169319, 40.72972681766877], [-73.97853146527547, 40.72972675468834], [-73.97853177306938, 40.72972669171015], [-73.97853208086038, 40.72972663773701], [-73.97853238864846, 40.72972659276897], [-73.97853269643367, 40.729726556805986], [-73.97853300421887, 40.72972652084304], [-73.97853331199826, 40.72972650289025], [-73.97853363161221, 40.729726493944746]]]]}, "properties": {"street_nam": "NO NAME", "shape_area": "5567.98319562", "shape_leng": "826.174458455", "feat_code": "3600", "status": "Unchanged", "sub_code": "360020", "source_id": "12360000149.0"}}, {"type": "Feature", "geometry": {"type": "MultiPolygon", "coordinates": [[[[-73.97871476464216, 40.72801071907448], [-73.97850660933587, 40.727923729081695], [-73.97854351031384, 40.727923976399616], [-73.97889468272845, 40.72807225604066], [-73.97888629840938, 40.728083665750596], [-73.97871476464216, 40.72801071907448]]]]}, "properties": {"street_nam": null, "shape_area": "545.054015542", "shape_leng": "246.602507886", "feat_code": "3600", "status": "New", "sub_code": "360010", "source_id": "0.0"}}, {"type": "Feature", "geometry": {"type": "MultiPolygon", "coordinates": [[[[-73.98092376305624, 40.728942663573896], [-73.98065799386097, 40.728829645023886], [-73.98039279835784, 40.728717078011584], [-73.9802162796781, 40.72864188596109], [-73.9798697973584, 40.72849683590499], [-73.97959860598543, 40.72838240105607], [-73.97927563136567, 40.728245238223636], [-73.97931824562667, 40.72824776100647], [-73.97960562478926, 40.72836908737747], [-73.97987810258725, 40.72848431488255], [-73.98022203053718, 40.72862883857811], [-73.98040119114074, 40.72870445791076], [-73.98066802035315, 40.72881633538856], [-73.98093362381636, 40.728929262036324], [-73.98119406934906, 40.72903843480776], [-73.98118432580067, 40.72905188591455], [-73.98092376305624, 40.728942663573896]]]]}, "properties": {"street_nam": null, "shape_area": "3151.90866408", "shape_leng": "1216.99211259", "feat_code": "3600", "status": "New", "sub_code": "360010", "source_id": "0.0"}}, {"type": "Feature", "geometry": {"type": "MultiPolygon", "coordinates": [[[[-73.98068168390888, 40.729674589927015], [-73.98070100666125, 40.72964832713346], [-73.98042883121568, 40.72953453705716], [-73.98005278026996, 40.729376451281006], [-73.979654340086, 40.72920890497866], [-73.97920956299357, 40.72902025992457], [-73.9786326966906, 40.72877817233842], [-73.97864782799607, 40.72875690242881], [-73.9789530361853, 40.72888604203521], [-73.97929815238805, 40.729031474611155], [-73.9796758706264, 40.729190888702924], [-73.9800508186745, 40.72934924297438], [-73.980516383609, 40.72954489154409], [-73.98074590650833, 40.72964262002258], [-73.98071267523527, 40.72968778577158], [-73.98068168390888, 40.729674589927015]]]]}, "properties": {"street_nam": null, "shape_area": "5725.5057642", "shape_leng": "1368.59200155", "feat_code": "3600", "status": "New", "sub_code": "360010", "source_id": "0.0"}}, {"type": "Feature", "geometry": {"type": "MultiPolygon", "coordinates": [[[[-73.98038815466418, 40.73049062704499], [-73.98039041210322, 40.73049058600605], [-73.98039422022518, 40.7304906821084], [-73.98041573234194, 40.730499831333], [-73.98043337405751, 40.730507334667024], [-73.98087190778959, 40.73069383340764], [-73.98089713448009, 40.730724336014916], [-73.98095266333817, 40.73079147631543], [-73.98095745237468, 40.73079726647616], [-73.98095802117909, 40.730799317027866], [-73.98095808844646, 40.730800041948285], [-73.9809579224774, 40.73080088929926], [-73.98095757296394, 40.73080195004037], [-73.98095708613212, 40.73080301706234], [-73.9809565093924, 40.73080388055456], [-73.98095551948563, 40.73080486104449], [-73.98095422890677, 40.730805827977086], [-73.98095294082091, 40.73080635546197], [-73.98095166946428, 40.73080633544047], [-73.98095016851721, 40.73080610646302], [-73.9809488889458, 40.730805836098824], [-73.9809459664517, 40.73080507108361], [-73.98094170884188, 40.73080371241233], [-73.98093714235979, 40.730802039412346], [-73.9809323794407, 40.730800130446376], [-73.98092753133676, 40.73079806117569], [-73.98092152213894, 40.730795370361555], [-73.98091577572987, 40.73079270480494], [-73.98090594472168, 40.73078805565125], [-73.9808962142756, 40.730783612729795], [-73.98088429292578, 40.73077833017003], [-73.98087016528312, 40.730772211570695], [-73.98085512977755, 40.73076581186005], [-73.98083834367667, 40.73075876078858], [-73.98082017982463, 40.7307512052004], [-73.98076095019641, 40.730726791541386], [-73.98072637666255, 40.73071238662997], [-73.98068059905808, 40.730693136894565], [-73.98051867101029, 40.73062459172727], [-73.9804533201162, 40.73059704580591], [-73.98039032583087, 40.73057055564461], [-73.98037263910119, 40.73056311803352], [-73.98034764948561, 40.730552610240785], [-73.98034440691404, 40.73054946060924], [-73.98034313972794, 40.73054735860624], [-73.98034267949137, 40.73054652555733], [-73.98034238730874, 40.73054582761342], [-73.9803421000904, 40.73054435253154], [-73.98034194676701, 40.730542436223374], [-73.98034195800392, 40.73054045960925], [-73.98034210987736, 40.73053926556095], [-73.98034216801759, 40.73053880451057], [-73.98034262893067, 40.73053734396455], [-73.98034332900718, 40.730535733974904], [-73.98034419839227, 40.7305340186547], [-73.98034567532984, 40.73053133989414], [-73.98035899639247, 40.73051451796763], [-73.98036509265005, 40.730506820560485], [-73.98037231744831, 40.73049769603951], [-73.98037511772064, 40.73049537410547], [-73.98037625793866, 40.730494495403505], [-73.98037728207858, 40.73049385351555], [-73.98037804926315, 40.73049348263679], [-73.98038010214701, 40.73049264371271], [-73.98038254567234, 40.730491800352596], [-73.98038467542985, 40.73049120097676], [-73.98038502229988, 40.73049110288045], [-73.98038615996411, 40.730490856334896], [-73.98038717330618, 40.730490703421054], [-73.98038815466418, 40.73049062704499]]]]}, "properties": {"street_nam": "NO NAME", "shape_area": "4569.92708371", "shape_leng": "421.285282905", "feat_code": "3600", "status": "Updated", "sub_code": "360020", "source_id": "12360000153.0"}}, {"type": "Feature", "geometry": {"type": "MultiPolygon", "coordinates": [[[[-73.97985859618863, 40.73031664744989], [-73.97985888029257, 40.7303166384945], [-73.97985915255352, 40.73031664754722], [-73.97985942481446, 40.7303166565999], [-73.97985969707268, 40.7303166746577], [-73.97985996932815, 40.730316701720575], [-73.97986024158365, 40.73031672878344], [-73.97987263531432, 40.73031734329622], [-73.97988500527225, 40.730318281986555], [-73.9798973159477, 40.73031953584316], [-73.97990956734083, 40.73032110486607], [-73.97992174761426, 40.73032298905329], [-73.97993383309034, 40.730325197405726], [-73.9799458119371, 40.73032771191122], [-73.9799576604796, 40.730330532565645], [-73.97996939055552, 40.73033365937112], [-73.97998096665238, 40.73033709232151], [-73.97999238877567, 40.73034081340676], [-73.98000363324503, 40.730344840632846], [-73.98001468823112, 40.7303491469826], [-73.98017814418041, 40.730418784540674], [-73.98018929612563, 40.730423536642014], [-73.98021388201603, 40.73043401288214], [-73.98023708309304, 40.7304438990463], [-73.9802504507611, 40.73044959435427], [-73.98025122009403, 40.730449963694696], [-73.98025196574376, 40.73045036004631], [-73.98025268771038, 40.730450783409104], [-73.98025339783676, 40.73045121577495], [-73.98025408428269, 40.7304516661469], [-73.98025474704812, 40.730452134524946], [-73.98025538613041, 40.730452629914154], [-73.98025601337247, 40.73045313430645], [-73.98025660509916, 40.73045364769773], [-73.9802571849802, 40.73045418810223], [-73.98025772934592, 40.73045473750574], [-73.98025826186874, 40.73045530491738], [-73.98025875887618, 40.73045588132801], [-73.98025923220314, 40.73045647574474], [-73.98025967001469, 40.73045707916043], [-73.98026008414845, 40.73045769157717], [-73.98026047460174, 40.730458322000054], [-73.98026082954229, 40.73045895241682], [-73.98026116080236, 40.7304596008397], [-73.9802614683873, 40.73046024925853], [-73.98026172861658, 40.73046091567941], [-73.98026197700804, 40.73046158299875], [-73.98026217804707, 40.730462257514006], [-73.98026235541067, 40.730462932925796], [-73.98026250909646, 40.73046361733855], [-73.98026262726952, 40.73046430174524], [-73.98026270992985, 40.73046498614586], [-73.98026275707478, 40.73046567954546], [-73.98026278054456, 40.73046637294098], [-73.98026278033919, 40.73046706633245], [-73.98026273278617, 40.730467750710744], [-73.98026266155532, 40.73046844409005], [-73.98026255481442, 40.73046912845818], [-73.98026242439835, 40.730469812822285], [-73.98026225491853, 40.73047049627912], [-73.98026205703066, 40.73047117252706], [-73.98026183191928, 40.73047183886475], [-73.98026157129519, 40.730472505196325], [-73.98026128699857, 40.73047316251878], [-73.98026096719188, 40.730473810830055], [-73.98026062371271, 40.730474450132185], [-73.98026024472345, 40.73047508042311], [-73.98025984206438, 40.730475692699834], [-73.98025940389255, 40.73047630497047], [-73.98025894441817, 40.73047690012781], [-73.98025845653673, 40.730477484474164], [-73.98025794735274, 40.7304780517072], [-73.98025740265867, 40.73047860992906], [-73.98025684612973, 40.73047915914381], [-73.980256254096, 40.73047968133719], [-73.98025563838976, 40.73048019452143], [-73.98025501085127, 40.73048068969348], [-73.98025434780537, 40.73048116684928], [-73.98025367292722, 40.730481625992866], [-73.98025297437923, 40.730482067122225], [-73.9802522521614, 40.730482490237364], [-73.98025151811134, 40.73048289534028], [-73.9802507603915, 40.73048328242896], [-73.98024997900443, 40.7304836424983], [-73.98024919762268, 40.73048398455749], [-73.98024839257111, 40.730484308602456], [-73.98024757568729, 40.7304846146352], [-73.98024673513632, 40.730484893648644], [-73.98024589459334, 40.73048514564683], [-73.98024504221817, 40.7304853796328], [-73.9802441780107, 40.73048559560656], [-73.98024330197364, 40.73048578456305], [-73.98024241410701, 40.73048594650225], [-73.98024152624572, 40.730486090431256], [-73.9802406265522, 40.73048621634804], [-73.98023972686934, 40.73048630624451], [-73.98023882719187, 40.73048637813079], [-73.98023791568478, 40.730486422999796], [-73.98023701602062, 40.73048644986063], [-73.98023610452688, 40.73048644970419], [-73.98023519304117, 40.7304864225325], [-73.98023428156078, 40.73048637735062], [-73.98023338192604, 40.73048630515552], [-73.98023248229929, 40.73048620594517], [-73.98023158267785, 40.730486088724604], [-73.98023069490202, 40.73048594449085], [-73.98022981896912, 40.73048578224893], [-73.98022894304425, 40.73048559299178], [-73.98022807896497, 40.73048537672138], [-73.9802272148911, 40.73048514244081], [-73.98022637450036, 40.730484881149025], [-73.98021522726522, 40.73048016957505], [-73.98019198709613, 40.73047034643541], [-73.9801678592271, 40.73046014852666], [-73.98015322745658, 40.7304539640151], [-73.9798539999493, 40.730327461752715], [-73.9798537750739, 40.730327335642194], [-73.97985357387635, 40.7303272005307], [-73.97985337268152, 40.73032705641417], [-73.97985317148668, 40.7303269122976], [-73.97985298213212, 40.73032675917802], [-73.97985280461783, 40.73032659705545], [-73.97985262710355, 40.730326434932856], [-73.97985246142683, 40.73032627281235], [-73.97985230759038, 40.730326101688796], [-73.97985215375394, 40.73032593056527], [-73.97985201175776, 40.73032575043874], [-73.97985188159913, 40.730325570314264], [-73.97985175144323, 40.7303253811847], [-73.97985163312215, 40.73032520106229], [-73.9798515266441, 40.73032500293181], [-73.9798514201633, 40.730324813806405], [-73.97985132552279, 40.73032461567796], [-73.97985124271982, 40.730324417551614], [-73.9798511717544, 40.73032421942732], [-73.97985111262926, 40.73032401230004], [-73.97985105350415, 40.73032380517273], [-73.97985100621383, 40.73032360705259], [-73.9798509707638, 40.73032339992947], [-73.97985094715133, 40.73032319280839], [-73.97985092354156, 40.73032297668222], [-73.97985091176665, 40.73032276956321], [-73.97985091182927, 40.73032256244626], [-73.97985092372944, 40.73032235533138], [-73.97985094746717, 40.730322148218605], [-73.97985097120491, 40.73032194110579], [-73.97985101861775, 40.73032173399713], [-73.97985106603056, 40.730321526888474], [-73.9798511134434, 40.730321319779826], [-73.97985118452861, 40.7303211216804], [-73.97985125561382, 40.730320923580976], [-73.97985135037413, 40.73032072548568], [-73.9798514332969, 40.73032052738832], [-73.97985153989477, 40.730320329295104], [-73.97985164648992, 40.73032014020696], [-73.97985177676016, 40.73031995112298], [-73.97985189519012, 40.73031977104201], [-73.9798520372952, 40.73031959096517], [-73.97985217940025, 40.730319410888335], [-73.97985233334016, 40.73031923981866], [-73.97985248728007, 40.730319068749026], [-73.97985266489233, 40.73031890668858], [-73.97985283066706, 40.730318744626054], [-73.97985302011416, 40.73031859157277], [-73.97985320956127, 40.73031843851947], [-73.97985339900565, 40.730318294471246], [-73.97985360028758, 40.730318150425106], [-73.97985381340433, 40.73031801538611], [-73.97985402651837, 40.73031788935223], [-73.97985425146989, 40.73031776332038], [-73.97985447641875, 40.73031764629364], [-73.97985470136761, 40.730317529266905], [-73.97985493814858, 40.730317430252384], [-73.97985518676983, 40.73031732223485], [-73.97985542354806, 40.73031723222541], [-73.97985567216112, 40.73031715122316], [-73.97985593261176, 40.73031707022295], [-73.97985619306237, 40.73031698922277], [-73.97985644167, 40.73031692623065], [-73.97985671395271, 40.73031686324268], [-73.97985697439518, 40.73031680925775], [-73.97985724667245, 40.73031676427995], [-73.97985750710946, 40.73031672830516], [-73.979857779384, 40.73031669233245], [-73.97985805165312, 40.7303166743699], [-73.97985832392223, 40.73031665640735], [-73.97985859618863, 40.73031664744989]]]]}, "properties": {"street_nam": "NO NAME", "shape_area": "1658.20039602", "shape_leng": "265.257535397", "feat_code": "3600", "status": "Unchanged", "sub_code": "360020", "source_id": "12360000150.0"}}]}